{"version": 0.6, "generator": "Overpass API 0.7.62.5 1bd436f1", "osm3s": {"timestamp_osm_base": "2025-03-20T23:03:00Z", "copyright": "The data included in this document is from www.openstreetmap.org. The data is made available under ODbL."}, "elements": [{"type": "node", "id": 1918168856, "lat": -34.9086783, "lon": -54.9587495}, {"type": "node", "id": 1918168857, "lat": -34.9086933, "lon": -54.9593543}, {"type": "node", "id": 1918168858, "lat": -34.9089042, "lon": -54.9587412}, {"type": "node", "id": 1918168859, "lat": -34.9089192, "lon": -54.959346}, {"type": "node", "id": 1953144089, "lat": -34.913786, "lon": -54.9551115}, {"type": "node", "id": 2363600132, "lat": -34.9080791, "lon": -54.9530785, "tags": {"addr:city": "Maldonado", "addr:country": "UY", "addr:state": "Maldonado", "addr:street": "Avenida Aigu\u00e1", "amenity": "fuel", "brand": "ANCAP", "brand:wikidata": "Q2824522", "operator": "FONBAY S.R.L.", "phone": "+598 4222 2021", "ursea:cod_estacion": "282"}}, {"type": "node", "id": 2363812522, "lat": -34.9094208, "lon": -54.9577181, "tags": {"amenity": "townhall", "name": "Alcald\u00eda de Maldonado"}}, {"type": "node", "id": 2363812523, "lat": -34.9101952, "lon": -54.9566926, "tags": {"amenity": "theatre", "name": "Teatro de la casa de la cultura"}}, {"type": "node", "id": 2363812536, "lat": -34.9105062, "lon": -54.9577649, "tags": {"amenity": "atm", "network": "Banred"}}, {"type": "node", "id": 2363812537, "lat": -34.9103254, "lon": -54.9578104, "tags": {"addr:city": "Maldonado", "addr:postcode": "20000", "addr:street": "Sarand\u00ed", "amenity": "atm", "network": "Banred"}}, {"type": "node", "id": 2363812538, "lat": -34.9087961, "lon": -54.9575838, "tags": {"amenity": "atm", "network": "Banred"}}, {"type": "node", "id": 2363812539, "lat": -34.9081734, "lon": -54.9580422, "tags": {"addr:city": "Maldonado", "addr:street": "Florida", "amenity": "atm", "network": "RedBROU", "source": "Reconocimiento cartogr\u00e1fico 2016 por KG."}}, {"type": "node", "id": 2363812541, "lat": -34.9134224, "lon": -54.9613487, "tags": {"amenity": "atm", "name": "Banred Disco 8", "network": "Banred"}}, {"type": "node", "id": 2363812548, "lat": -34.9082661, "lon": -54.9532732, "tags": {"amenity": "restaurant", "cuisine": "steak_house", "name": "Parrillada Lo de Ruben"}}, {"type": "node", "id": 2363812549, "lat": -34.909178, "lon": -54.953433, "tags": {"amenity": "restaurant", "name": "Simplemente La Balanza", "phone": "42253909"}}, {"type": "node", "id": 2363944645, "lat": -34.9102078, "lon": -54.9596757}, {"type": "node", "id": 2363944647, "lat": -34.9109679, "lon": -54.9596395}, {"type": "node", "id": 2363944649, "lat": -34.9108921, "lon": -54.958758}, {"type": "node", "id": 2363944651, "lat": -34.9101781, "lon": -54.95875}, {"type": "node", "id": 2363944656, "lat": -34.9125145, "lon": -54.9614293}, {"type": "node", "id": 2363944658, "lat": -34.912583, "lon": -54.9610063}, {"type": "node", "id": 2363944660, "lat": -34.9119996, "lon": -54.9609779}, {"type": "node", "id": 2363944662, "lat": -34.9119963, "lon": -54.9610876}, {"type": "node", "id": 2363944664, "lat": -34.912043, "lon": -54.9611201}, {"type": "node", "id": 2365191588, "lat": -34.9095638, "lon": -54.9606695, "tags": {"addr:city": "Maldonado", "addr:country": "UY", "addr:state": "Maldonado", "addr:street": "Zelmar Michelini", "amenity": "school", "name": "Escuela 2 Jos\u00e9 Pedro Varela", "nohousenumber": "yes", "operator": "Direcci\u00f3n General de Educaci\u00f3n Inicial y Primaria", "operator:type": "public", "operator:wikidata": "Q5783994", "phone": "+598 4222 2210", "ref:UY:ruee": "1110002", "ref:UY:rule_est": "2100002", "short_name": "Escuela 2", "wikidata": "Q119825145"}}, {"type": "node", "id": 2365196117, "lat": -34.9101036, "lon": -54.9603712, "tags": {"amenity": "clinical_laboratory", "name": "Laboratorio Bio Este"}}, {"type": "node", "id": 2365229888, "lat": -34.9065165, "lon": -54.9533341, "tags": {"amenity": "pharmacy", "healthcare": "pharmacy", "name": "Maldonado"}}, {"type": "node", "id": 2365904972, "lat": -34.9092237, "lon": -54.9562694}, {"type": "node", "id": 2365904973, "lat": -34.9095112, "lon": -54.9562615}, {"type": "node", "id": 2365904974, "lat": -34.9095068, "lon": -54.956022}, {"type": "node", "id": 2365904975, "lat": -34.9092193, "lon": -54.9560299}, {"type": "node", "id": 2365904980, "lat": -34.9076549, "lon": -54.9597849}, {"type": "node", "id": 2365904981, "lat": -34.9079824, "lon": -54.9597671}, {"type": "node", "id": 2365904982, "lat": -34.9079709, "lon": -54.9594543}, {"type": "node", "id": 2365904983, "lat": -34.9076435, "lon": -54.9594721}, {"type": "node", "id": 2365904984, "lat": -34.9076838, "lon": -54.9590694}, {"type": "node", "id": 2365904985, "lat": -34.9078696, "lon": -54.9590611}, {"type": "node", "id": 2365904986, "lat": -34.907863, "lon": -54.9588445}, {"type": "node", "id": 2365904987, "lat": -34.9076772, "lon": -54.9588529}, {"type": "node", "id": 2365904989, "lat": -34.9068076, "lon": -54.9593163}, {"type": "node", "id": 2365904990, "lat": -34.9070608, "lon": -54.9593137}, {"type": "node", "id": 2365904991, "lat": -34.907058, "lon": -54.9590273}, {"type": "node", "id": 2365904992, "lat": -34.90689, "lon": -54.9590264}, {"type": "node", "id": 2365904993, "lat": -34.9068906, "lon": -54.9588588}, {"type": "node", "id": 2365904994, "lat": -34.9068327, "lon": -54.9588556}, {"type": "node", "id": 2365904995, "lat": -34.9068338, "lon": -54.9590121}, {"type": "node", "id": 2365904996, "lat": -34.9068055, "lon": -54.9590124}, {"type": "node", "id": 2365905003, "lat": -34.9144474, "lon": -54.9593516}, {"type": "node", "id": 2365905004, "lat": -34.914699, "lon": -54.9593607}, {"type": "node", "id": 2365905005, "lat": -34.9148972, "lon": -54.9586183}, {"type": "node", "id": 2365905006, "lat": -34.9145216, "lon": -54.9586364}, {"type": "node", "id": 2365905007, "lat": -34.9136746, "lon": -54.9573032}, {"type": "node", "id": 2365905008, "lat": -34.9140647, "lon": -54.9572948}, {"type": "node", "id": 2365905009, "lat": -34.9140505, "lon": -54.9565839}, {"type": "node", "id": 2365905010, "lat": -34.9136668, "lon": -54.956597}, {"type": "node", "id": 2365905011, "lat": -34.9065757, "lon": -54.9584878, "tags": {"amenity": "car_wash", "name": "Gomeria El Rey", "shop": "tyres"}}, {"type": "node", "id": 2365905012, "lat": -34.9063463, "lon": -54.9588839, "tags": {"addr:city": "Maldonado", "addr:street": "18 de Julio", "amenity": "fast_food", "cuisine": "chicken", "name": "Don Pico", "source": "Reconocimiento cartogr\u00e1fico 2016 por KG."}}, {"type": "node", "id": 2365930637, "lat": -34.9076826, "lon": -54.9575615, "tags": {"addr:city": "Maldonado", "addr:country": "UY", "addr:street": "Sarand\u00ed", "amenity": "pharmacy", "healthcare": "pharmacy", "name": "Santa Teresa"}}, {"type": "node", "id": 2365930638, "lat": -34.9091135, "lon": -54.9567992, "tags": {"amenity": "pharmacy", "healthcare": "pharmacy", "name": "25 de Mayo"}}, {"type": "node", "id": 2365930639, "lat": -34.909988, "lon": -54.9575188, "tags": {"addr:city": "Maldonado", "addr:country": "UY", "amenity": "pharmacy", "healthcare": "pharmacy", "name": "De las Am\u00e9ricas"}}, {"type": "node", "id": 2365930643, "lat": -34.9084294, "lon": -54.9599937, "tags": {"amenity": "pharmacy", "healthcare": "pharmacy", "name": "Santa Teresa 3"}}, {"type": "node", "id": 2365930645, "lat": -34.9108599, "lon": -54.9577406, "tags": {"amenity": "courthouse", "name": "Juzgado"}}, {"type": "node", "id": 2365930646, "lat": -34.911053, "lon": -54.9573158, "tags": {"addr:city": "Maldonado", "addr:housenumber": "735", "addr:postcode": "20000", "addr:street": "Arturo Santana", "amenity": "bank", "name": "BHU", "official_name": "Banco Hipotecario del Uruguay", "short_name": "BHU"}}, {"type": "node", "id": 2365989747, "lat": -34.9133055, "lon": -54.9530894}, {"type": "node", "id": 2365989748, "lat": -34.9140702, "lon": -54.9530526}, {"type": "node", "id": 2365989749, "lat": -34.9140007, "lon": -54.9527864}, {"type": "node", "id": 2365989750, "lat": -34.9133035, "lon": -54.9528208}, {"type": "node", "id": 2367942355, "lat": -34.9108259, "lon": -54.9563611, "tags": {"amenity": "courthouse", "name": "Juzgados"}}, {"type": "node", "id": 2367942357, "lat": -34.9102207, "lon": -54.9573076, "tags": {"amenity": "arts_centre", "name": "Casa de La Cultura"}}, {"type": "node", "id": 2367942358, "lat": -34.9091304, "lon": -54.9594298, "tags": {"amenity": "school", "name": "Colegio Virgen del Santander", "operator:type": "private"}}, {"type": "node", "id": 2369573553, "lat": -34.9144556, "lon": -54.9590841}, {"type": "node", "id": 2369573555, "lat": -34.9144743, "lon": -54.9590106}, {"type": "node", "id": 2369573557, "lat": -34.9144887, "lon": -54.9593522}, {"type": "node", "id": 2369573558, "lat": -34.9145112, "lon": -54.9589348}, {"type": "node", "id": 2369573564, "lat": -34.9145322, "lon": -54.958882}, {"type": "node", "id": 2369573567, "lat": -34.9145387, "lon": -54.9587018}, {"type": "node", "id": 2369573569, "lat": -34.9145443, "lon": -54.9588108}, {"type": "node", "id": 2369573586, "lat": -34.9146591, "lon": -54.9586121}, {"type": "node", "id": 2369573588, "lat": -34.9146665, "lon": -54.9593184}, {"type": "node", "id": 2369573595, "lat": -34.9147835, "lon": -54.9592512}, {"type": "node", "id": 2369573602, "lat": -34.914873, "lon": -54.9590469}, {"type": "node", "id": 2369573604, "lat": -34.9149069, "lon": -54.9588945}, {"type": "node", "id": 2374411182, "lat": -34.9128145, "lon": -54.9555198}, {"type": "node", "id": 2374411185, "lat": -34.9128074, "lon": -54.9550614}, {"type": "node", "id": 2374411186, "lat": -34.9100377, "lon": -54.9607484, "tags": {"addr:city": "Maldonado", "addr:country": "UY", "amenity": "pharmacy", "healthcare": "pharmacy", "name": "Del Vigia"}}, {"type": "node", "id": 2375466080, "lat": -34.914073, "lon": -54.9608487, "tags": {"amenity": "pharmacy", "healthcare": "pharmacy", "name": "Farmashop 17", "source": "Reconocimiento cartogr\u00e1fico de campo 2016 por KG"}}, {"type": "node", "id": 2376255054, "lat": -34.9085563, "lon": -54.9577282, "tags": {"amenity": "taxi", "name": "Taxi San Fernando", "phone": "+598 4222 3388; +598 4222 4444"}}, {"type": "node", "id": 2376255055, "lat": -34.9084043, "lon": -54.9584643, "tags": {"amenity": "taxi", "name": "Taxi Colonial", "phone": "+598 4222 9090"}}, {"type": "node", "id": 2377503728, "lat": -34.9075718, "lon": -54.9564791, "tags": {"amenity": "ice_cream", "name": "Helader\u00eda Las Palmas"}}, {"type": "node", "id": 2377571721, "lat": -34.9098219, "lon": -54.9532032, "tags": {"addr:street": "Santa Teresa", "amenity": "bureau_de_change", "name": "Abitab Santa Teresa"}}, {"type": "node", "id": 2377571725, "lat": -34.9132276, "lon": -54.9614727, "tags": {"amenity": "bureau_de_change", "name": "Abitab Disco 8"}}, {"type": "node", "id": 2377574450, "lat": -34.9082233, "lon": -54.9575566, "tags": {"amenity": "restaurant", "cuisine": "regional", "name": "Sumo", "phone": "4222 3959"}}, {"type": "node", "id": 2377834141, "lat": -34.9101111, "lon": -54.956293, "tags": {"amenity": "bureau_de_change", "name": "Redpagos Surhaciendas", "phone": "4225 1595"}}, {"type": "node", "id": 2377834143, "lat": -34.908965, "lon": -54.9546111, "tags": {"amenity": "bureau_de_change", "name": "Redpagos Cambio Nelson", "phone": "4223 8359"}}, {"type": "node", "id": 2377841708, "lat": -34.9133196, "lon": -54.956566, "tags": {"amenity": "bureau_de_change", "name": "Redpagos Cambio Maiorano", "phone": "+598 4224 3390;+598 4224 3391"}}, {"type": "node", "id": 2377847924, "lat": -34.9082358, "lon": -54.9579012, "tags": {"amenity": "bureau_de_change", "name": "Redpagos Cambio Bacacay", "phone": "4224 1053", "source": "Reconocimiento cartogr\u00e1fico 2016 por KG."}}, {"type": "node", "id": 2377847925, "lat": -34.9084116, "lon": -54.959035, "tags": {"addr:city": "Maldonado", "addr:street": "Florida", "amenity": "bureau_de_change", "name": "Redpagos Cambio Bacacay", "phone": "+598 4223 6223"}}, {"type": "node", "id": 2377897032, "lat": -34.9142817, "lon": -54.9563507, "tags": {"amenity": "atm", "check_date": "2021-11-26", "network": "RedBROU"}}, {"type": "node", "id": 2377897033, "lat": -34.9143661, "lon": -54.9563684, "tags": {"amenity": "bank", "branch": "Campus", "brand": "Rep\u00fablica", "brand:wikidata": "Q4077337", "brand:wikipedia": "en:Banco de la Rep\u00fablica Oriental del Uruguay", "name": "Rep\u00fablica", "official_name": "Banco de la Rep\u00fablica Oriental del Uruguay", "short_name": "BROU"}}, {"type": "node", "id": 2377900468, "lat": -34.9082082, "lon": -54.9571108, "tags": {"amenity": "ice_cream", "name": "Helader\u00eda Pecas"}}, {"type": "node", "id": 2377919071, "lat": -34.9078437, "lon": -54.9527723, "tags": {"amenity": "car_wash", "name": "Lavadero ANCAP Av. Aigua"}}, {"type": "node", "id": 2378187280, "lat": -34.9073977, "lon": -54.9575962, "tags": {"amenity": "fast_food", "cuisine": "burger", "name": "El Grillo"}}, {"type": "node", "id": 2378206452, "lat": -34.9103031, "lon": -54.9572964, "tags": {"amenity": "library", "name": "Biblioteca Municipal"}}, {"type": "node", "id": 2379633676, "lat": -34.9070502, "lon": -54.9535216, "tags": {"amenity": "bar", "name": "Club Pe\u00f1asco Seniors"}}, {"type": "node", "id": 2380664390, "lat": -34.9092526, "lon": -54.9571812, "tags": {"amenity": "courthouse", "name": "Juzgado de Paz"}}, {"type": "node", "id": 2381519833, "lat": -34.9082902, "lon": -54.9596875, "tags": {"addr:city": "Maldonado", "addr:street": "Florida", "amenity": "bureau_de_change", "name": "Maiorano"}}, {"type": "node", "id": 2381615594, "lat": -34.9067186, "lon": -54.957584, "tags": {"addr:city": "Maldonado", "addr:country": "UY", "addr:street": "Sarand\u00ed", "amenity": "ice_cream", "name": "Popi"}}, {"type": "node", "id": 2383808408, "lat": -34.9082899, "lon": -54.9593802, "tags": {"amenity": "bar", "name": "Bar Arcoiris"}}, {"type": "node", "id": 2383808409, "lat": -34.9080821, "lon": -54.9596875, "tags": {"amenity": "theatre", "name": "Teatro Paz y Uni\u00f3n"}}, {"type": "node", "id": 2383808425, "lat": -34.909949, "lon": -54.9563954, "tags": {"amenity": "restaurant", "name": "Lo de Jorge"}}, {"type": "node", "id": 2383808441, "lat": -34.9124427, "lon": -54.9566067, "tags": {"amenity": "restaurant", "name": "C\u00e9firo Restaurant"}}, {"type": "node", "id": 2386878049, "lat": -34.9072396, "lon": -54.9583922, "tags": {"amenity": "pub", "name": "El Pool Ingles"}}, {"type": "node", "id": 2387990626, "lat": -34.9063448, "lon": -54.9546958, "tags": {"amenity": "school", "name": "Liceo Padre Domingo", "operator:type": "private_non_profit", "religion": "christian"}}, {"type": "node", "id": 2393264927, "lat": -34.9072128, "lon": -54.9527345, "tags": {"amenity": "place_of_worship", "building": "yes", "denomination": "protestant", "name": "Iglesia Adventista", "religion": "christian"}}, {"type": "node", "id": 2393474987, "lat": -34.9142929, "lon": -54.9601079}, {"type": "node", "id": 2393474988, "lat": -34.9141093, "lon": -54.9603187}, {"type": "node", "id": 2393475764, "lat": -34.913715, "lon": -54.9562861}, {"type": "node", "id": 2393475765, "lat": -34.9139657, "lon": -54.9562669}, {"type": "node", "id": 2393475766, "lat": -34.9138191, "lon": -54.9560149}, {"type": "node", "id": 2393475767, "lat": -34.9138128, "lon": -54.9557553}, {"type": "node", "id": 2393475768, "lat": -34.9136693, "lon": -54.9557573}, {"type": "node", "id": 2393475769, "lat": -34.9136882, "lon": -54.956288}, {"type": "node", "id": 2393475770, "lat": -34.913685, "lon": -54.9543572}, {"type": "node", "id": 2393475771, "lat": -34.9136724, "lon": -54.9540822}, {"type": "node", "id": 2393475772, "lat": -34.9137686, "lon": -54.9541842}, {"type": "node", "id": 2393475773, "lat": -34.9139153, "lon": -54.9541803}, {"type": "node", "id": 2393475774, "lat": -34.9143663, "lon": -54.9541534}, {"type": "node", "id": 2393475775, "lat": -34.9144593, "lon": -54.9540899}, {"type": "node", "id": 2393475776, "lat": -34.9146139, "lon": -54.9541149}, {"type": "node", "id": 2393475777, "lat": -34.9147416, "lon": -54.9541476}, {"type": "node", "id": 2393475778, "lat": -34.91474, "lon": -54.9543169}, {"type": "node", "id": 2393475779, "lat": -34.914565, "lon": -54.9543072}, {"type": "node", "id": 2393475780, "lat": -34.9145492, "lon": -54.9542553}, {"type": "node", "id": 2393475781, "lat": -34.9144893, "lon": -54.9542015}, {"type": "node", "id": 2393475782, "lat": -34.9143616, "lon": -54.9541976}, {"type": "node", "id": 2393475783, "lat": -34.9143379, "lon": -54.9542476}, {"type": "node", "id": 2393475784, "lat": -34.9142843, "lon": -54.9542842}, {"type": "node", "id": 2393475785, "lat": -34.9141313, "lon": -54.9542765}, {"type": "node", "id": 2393475786, "lat": -34.9140131, "lon": -54.9543265}, {"type": "node", "id": 2393475787, "lat": -34.9139705, "lon": -54.9543496}, {"type": "node", "id": 2396678978, "lat": -34.912557, "lon": -54.9553117, "tags": {"amenity": "veterinary", "name": "Veterinaria San Martin", "source": "Reconocimiento cartogr\u00e1fico de campo 2016 por KG."}}, {"type": "node", "id": 2397909198, "lat": -34.9138428, "lon": -54.9590323}, {"type": "node", "id": 2397909200, "lat": -34.9138443, "lon": -54.9590787}, {"type": "node", "id": 2397909210, "lat": -34.9138481, "lon": -54.9591253}, {"type": "node", "id": 2397909211, "lat": -34.9138476, "lon": -54.9589892}, {"type": "node", "id": 2397909212, "lat": -34.9138607, "lon": -54.9591645}, {"type": "node", "id": 2397909214, "lat": -34.9138639, "lon": -54.9589371}, {"type": "node", "id": 2397909218, "lat": -34.9138842, "lon": -54.9588975}, {"type": "node", "id": 2397909220, "lat": -34.9138968, "lon": -54.9592291}, {"type": "node", "id": 2397909222, "lat": -34.9138456, "lon": -54.9588538}, {"type": "node", "id": 2397909224, "lat": -34.9139091, "lon": -54.9587799}, {"type": "node", "id": 2397909226, "lat": -34.9139465, "lon": -54.9588271}, {"type": "node", "id": 2397909228, "lat": -34.9139738, "lon": -54.9588039}, {"type": "node", "id": 2397909230, "lat": -34.9139712, "lon": -54.9591869}, {"type": "node", "id": 2397909232, "lat": -34.9140116, "lon": -54.9587889}, {"type": "node", "id": 2397909234, "lat": -34.914012, "lon": -54.9591389}, {"type": "node", "id": 2397909236, "lat": -34.9140463, "lon": -54.9591519}, {"type": "node", "id": 2397909238, "lat": -34.9140621, "lon": -54.9587809}, {"type": "node", "id": 2397909240, "lat": -34.9140679, "lon": -54.9591527}, {"type": "node", "id": 2397909242, "lat": -34.9140936, "lon": -54.9591466}, {"type": "node", "id": 2397909244, "lat": -34.9141099, "lon": -54.9587859}, {"type": "node", "id": 2397909246, "lat": -34.9141782, "lon": -54.9589424}, {"type": "node", "id": 2397909248, "lat": -34.9141322, "lon": -54.9591144}, {"type": "node", "id": 2397909250, "lat": -34.9141368, "lon": -54.9589932}, {"type": "node", "id": 2397909252, "lat": -34.914146, "lon": -54.9590285}, {"type": "node", "id": 2397909254, "lat": -34.914148, "lon": -54.9590645}, {"type": "node", "id": 2397909256, "lat": -34.9141556, "lon": -54.9588032}, {"type": "node", "id": 2397909258, "lat": -34.9142034, "lon": -54.9588342}, {"type": "node", "id": 2397909260, "lat": -34.9142645, "lon": -54.9588919}, {"type": "node", "id": 2397912405, "lat": -34.9143188, "lon": -54.9570291}, {"type": "node", "id": 2397912408, "lat": -34.9143208, "lon": -54.9572076}, {"type": "node", "id": 2397912410, "lat": -34.9147752, "lon": -54.9570092}, {"type": "node", "id": 2397912412, "lat": -34.9147823, "lon": -54.9571865}, {"type": "node", "id": 2432216735, "lat": -34.9117515, "lon": -54.9565521, "tags": {"amenity": "kindergarten", "name": "Girasoles", "operator:type": "private"}}, {"type": "node", "id": 2432216736, "lat": -34.9105808, "lon": -54.956591, "tags": {"amenity": "veterinary", "name": "Veterinaria Sienra", "shop": "pet"}}, {"type": "node", "id": 2433110320, "lat": -34.9125282, "lon": -54.9530395, "tags": {"addr:street": "Santa Teresa", "amenity": "post_office", "name": "Agencia Central (DAC)"}}, {"type": "node", "id": 2436935460, "lat": -34.9080898, "lon": -54.95778, "tags": {"amenity": "studio", "name": "Estudios Cadena del Mar", "studio": "audio"}}, {"type": "node", "id": 2451192478, "lat": -34.9134636, "lon": -54.9530818}, {"type": "node", "id": 2451192496, "lat": -34.9135779, "lon": -54.9530763}, {"type": "node", "id": 2451192507, "lat": -34.9138589, "lon": -54.9530628}, {"type": "node", "id": 2451192529, "lat": -34.9144392, "lon": -54.9614629}, {"type": "node", "id": 2451192537, "lat": -34.9151912, "lon": -54.961613}, {"type": "node", "id": 2451192540, "lat": -34.9147823, "lon": -54.9611471}, {"type": "node", "id": 2451192542, "lat": -34.9148813, "lon": -54.9620949}, {"type": "node", "id": 2451192544, "lat": -34.9153262, "lon": -54.9618288}, {"type": "node", "id": 2487114665, "lat": -34.9096064, "lon": -54.953395, "tags": {"amenity": "fast_food", "name": "Chiveter\u00eda El Jubilado"}}, {"type": "node", "id": 2487114699, "lat": -34.9122042, "lon": -54.9532967, "tags": {"addr:city": "Maldonado", "addr:housenumber": "639", "addr:postcode": "20000", "addr:street": "Santa Teresa", "amenity": "restaurant", "name": "Cirillo"}}, {"type": "node", "id": 2492998659, "lat": -34.9087484, "lon": -54.9551231}, {"type": "node", "id": 2492998662, "lat": -34.9090904, "lon": -54.9551175}, {"type": "node", "id": 2517399333, "lat": -34.9131475, "lon": -54.9618714}, {"type": "node", "id": 2517399336, "lat": -34.9131851, "lon": -54.9610566}, {"type": "node", "id": 2517399337, "lat": -34.9131982, "lon": -54.9617616}, {"type": "node", "id": 2517399339, "lat": -34.9133669, "lon": -54.9620332}, {"type": "node", "id": 2517399342, "lat": -34.9134963, "lon": -54.9614341}, {"type": "node", "id": 2517399343, "lat": -34.9138074, "lon": -54.9611245}, {"type": "node", "id": 2517399344, "lat": -34.9138467, "lon": -54.9614301}, {"type": "node", "id": 2521008185, "lat": -34.9087572, "lon": -54.955446}, {"type": "node", "id": 2521008187, "lat": -34.9090962, "lon": -54.9554367}, {"type": "node", "id": 2521012414, "lat": -34.907744, "lon": -54.9516901}, {"type": "node", "id": 2521012415, "lat": -34.907748, "lon": -54.9518546}, {"type": "node", "id": 2521012416, "lat": -34.9079631, "lon": -54.9515255}, {"type": "node", "id": 2521012417, "lat": -34.907967, "lon": -54.951682}, {"type": "node", "id": 2521012418, "lat": -34.9081167, "lon": -54.9515199}, {"type": "node", "id": 2521012419, "lat": -34.9081246, "lon": -54.9518408}, {"type": "node", "id": 2556570909, "lat": -34.9065661, "lon": -54.9508421, "tags": {"amenity": "kindergarten", "name": "El Principito", "operator:type": "private"}}, {"type": "node", "id": 2556570955, "lat": -34.9082499, "lon": -54.9537924}, {"type": "node", "id": 2556570956, "lat": -34.9082526, "lon": -54.953963}, {"type": "node", "id": 2556570957, "lat": -34.9082804, "lon": -54.9539878}, {"type": "node", "id": 2556570958, "lat": -34.9082816, "lon": -54.954066}, {"type": "node", "id": 2556570959, "lat": -34.9082941, "lon": -54.953962}, {"type": "node", "id": 2556570960, "lat": -34.9082945, "lon": -54.9539875}, {"type": "node", "id": 2556570961, "lat": -34.9082956, "lon": -54.9540656}, {"type": "node", "id": 2556570962, "lat": -34.908297, "lon": -54.9541504}, {"type": "node", "id": 2556570963, "lat": -34.9082988, "lon": -54.9542113}, {"type": "node", "id": 2556570964, "lat": -34.9083015, "lon": -54.9543781}, {"type": "node", "id": 2556570965, "lat": -34.9083225, "lon": -54.9541498}, {"type": "node", "id": 2556570966, "lat": -34.9083234, "lon": -54.9542107}, {"type": "node", "id": 2556570967, "lat": -34.908438, "lon": -54.9541495}, {"type": "node", "id": 2556570968, "lat": -34.9084392, "lon": -54.9539653}, {"type": "node", "id": 2556570969, "lat": -34.9084409, "lon": -54.9540712}, {"type": "node", "id": 2556570970, "lat": -34.9084389, "lon": -54.9542058}, {"type": "node", "id": 2556570971, "lat": -34.9084587, "lon": -54.9542054}, {"type": "node", "id": 2556570972, "lat": -34.9084614, "lon": -54.9543743}, {"type": "node", "id": 2556570973, "lat": -34.9085431, "lon": -54.9540687}, {"type": "node", "id": 2556570974, "lat": -34.9085444, "lon": -54.954147}, {"type": "node", "id": 2556570975, "lat": -34.9086331, "lon": -54.9537833}, {"type": "node", "id": 2556570976, "lat": -34.9086359, "lon": -54.9539606}, {"type": "node", "id": 2559352831, "lat": -34.9145848, "lon": -54.9507041, "tags": {"addr:city": "Punta del Este", "addr:country": "UY", "addr:state": "Maldonado", "addr:street": "San Mart\u00edn", "amenity": "school", "name": "Escuela 84", "nohousenumber": "yes", "operator": "Direcci\u00f3n General de Educaci\u00f3n Inicial y Primaria", "operator:type": "public", "operator:wikidata": "Q5783994", "phone": "+598 4222 1423", "ref:UY:ruee": "1110084", "ref:UY:rule_est": "2100084", "wikidata": "Q119826739", "wikimedia_commons": "Category:Escuela N\u00b0 84 de Maldonado"}}, {"type": "node", "id": 2588605288, "lat": -34.9073361, "lon": -54.9507508, "tags": {"amenity": "waste_disposal"}}, {"type": "node", "id": 2588605289, "lat": -34.9073841, "lon": -54.9521457, "tags": {"amenity": "waste_disposal"}}, {"type": "node", "id": 2594265371, "lat": -34.9080679, "lon": -54.9511534, "tags": {"amenity": "dentist", "healthcare": "dentist"}}, {"type": "node", "id": 2594265391, "lat": -34.9082746, "lon": -54.9510798, "tags": {"amenity": "waste_disposal"}}, {"type": "node", "id": 2594265395, "lat": -34.9090483, "lon": -54.951037, "tags": {"amenity": "waste_disposal"}}, {"type": "node", "id": 2594294060, "lat": -34.9135002, "lon": -54.9573288, "tags": {"addr:city": "Maldonado", "addr:country": "UY", "amenity": "pharmacy", "dispensing": "no", "healthcare": "pharmacy", "name": "San Roque"}}, {"type": "node", "id": 2612200984, "lat": -34.9149806, "lon": -54.956517, "tags": {"amenity": "payment_centre", "brand": "Abitab", "brand:wikidata": "Q16488129", "brand:wikipedia": "es:Abitab", "name": "Abitab"}}, {"type": "node", "id": 2642871239, "lat": -34.9092066, "lon": -54.9605757, "tags": {"amenity": "veterinary", "name": "Veterinar\u00eda Lopez Quintela"}}, {"type": "node", "id": 2642871246, "lat": -34.9079308, "lon": -54.9522179, "tags": {"amenity": "waste_disposal"}}, {"type": "node", "id": 2642871251, "lat": -34.9089013, "lon": -54.9521863, "tags": {"amenity": "waste_disposal"}}, {"type": "node", "id": 2642871255, "lat": -34.9091448, "lon": -54.9546728, "tags": {"amenity": "waste_disposal"}}, {"type": "node", "id": 2642871256, "lat": -34.9091467, "lon": -54.954701, "tags": {"amenity": "waste_disposal"}}, {"type": "node", "id": 2642871260, "lat": -34.9091862, "lon": -54.9560198, "tags": {"amenity": "waste_disposal"}}, {"type": "node", "id": 2642871262, "lat": -34.9092245, "lon": -54.9580137, "tags": {"amenity": "waste_disposal"}}, {"type": "node", "id": 2642871264, "lat": -34.9092438, "lon": -54.9587542, "tags": {"amenity": "waste_disposal"}}, {"type": "node", "id": 2642871266, "lat": -34.9093093, "lon": -54.96134, "tags": {"amenity": "waste_disposal"}}, {"type": "node", "id": 2643714127, "lat": -34.9137121, "lon": -54.9600594}, {"type": "node", "id": 2643714129, "lat": -34.913916, "lon": -54.9600499}, {"type": "node", "id": 2643714132, "lat": -34.9136982, "lon": -54.9596948}, {"type": "node", "id": 2643714133, "lat": -34.9136631, "lon": -54.9603522}, {"type": "node", "id": 2643714138, "lat": -34.9142772, "lon": -54.9596679}, {"type": "node", "id": 2643714139, "lat": -34.9136482, "lon": -54.9596948}, {"type": "node", "id": 2643714147, "lat": -34.9141846, "lon": -54.9606044, "tags": {"amenity": "car_wash", "name": "Ancap Roosevelt y Michellini"}}, {"type": "node", "id": 2696326260, "lat": -34.914025, "lon": -54.9600412}, {"type": "node", "id": 2696326261, "lat": -34.9142188, "lon": -54.9596688}, {"type": "node", "id": 2696326262, "lat": -34.9142304, "lon": -54.9600318}, {"type": "node", "id": 2719988467, "lat": -34.909835, "lon": -54.9576565}, {"type": "node", "id": 2719988470, "lat": -34.9098407, "lon": -54.9579189}, {"type": "node", "id": 2719988478, "lat": -34.9100415, "lon": -54.9576498}, {"type": "node", "id": 2719988480, "lat": -34.9100472, "lon": -54.9579122}, {"type": "node", "id": 2719988530, "lat": -34.9128871, "lon": -54.9555835}, {"type": "node", "id": 2719988539, "lat": -34.9129886, "lon": -54.955581}, {"type": "node", "id": 2719988540, "lat": -34.9129908, "lon": -54.9557137}, {"type": "node", "id": 2719988555, "lat": -34.913294, "lon": -54.9556943}, {"type": "node", "id": 2719988556, "lat": -34.9133264, "lon": -54.9557922}, {"type": "node", "id": 2719988557, "lat": -34.9133765, "lon": -54.9560657}, {"type": "node", "id": 2719988558, "lat": -34.9135256, "lon": -54.9561938}, {"type": "node", "id": 2732318145, "lat": -34.9098452, "lon": -54.9581328}, {"type": "node", "id": 2732318159, "lat": -34.9092555, "lon": -54.9576838}, {"type": "node", "id": 2732318161, "lat": -34.9092698, "lon": -54.9581717}, {"type": "node", "id": 2732318162, "lat": -34.9096475, "lon": -54.9581453}, {"type": "node", "id": 2732318164, "lat": -34.9096535, "lon": -54.9583878}, {"type": "node", "id": 2732318165, "lat": -34.9100637, "lon": -54.9583778}, {"type": "node", "id": 2732318168, "lat": -34.9092738, "lon": -54.9586735}, {"type": "node", "id": 2732794585, "lat": -34.9145851, "lon": -54.9533251}, {"type": "node", "id": 2732794587, "lat": -34.9145829, "lon": -54.9534621}, {"type": "node", "id": 2732794590, "lat": -34.914689, "lon": -54.9533036}, {"type": "node", "id": 2732794591, "lat": -34.9146883, "lon": -54.9533251}, {"type": "node", "id": 2732794602, "lat": -34.9146187, "lon": -54.9534634}, {"type": "node", "id": 2732794604, "lat": -34.914618, "lon": -54.953507}, {"type": "node", "id": 2732794607, "lat": -34.9148705, "lon": -54.9533078}, {"type": "node", "id": 2732794608, "lat": -34.9148672, "lon": -54.9535015}, {"type": "node", "id": 4277506391, "lat": -34.9134739, "lon": -54.9569071, "tags": {"addr:postcode": "20000", "addr:street": "Juan Antonio Ledesma", "amenity": "cafe", "cuisine": "coffee_shop;breakfast;sandwich;cake;tea", "email": "jazzcafeuruguay@gmail.com", "internet_access": "wlan", "name": "Jazz Caf\u00e9", "name:en": "Jazz Caf\u00e9", "opening_hours": "Mo-Fr 08:00-10:45, 16:15-19:00", "phone": "4223 3042", "website": "http://www.jazzcafe.com.uy"}}, {"type": "node", "id": 4424079013, "lat": -34.9142301, "lon": -54.9608102, "tags": {"addr:city": "Maldonado", "addr:country": "UY", "addr:state": "Maldonado", "addr:street": "Avenida Franklin Delano Roosevelt", "amenity": "fuel", "brand": "ANCAP", "brand:wikidata": "Q2824522", "fuel:diesel": "yes", "fuel:octane_95": "yes", "operator": "MULTISERVICE S.R.L.", "phone": "+598 4223 6091; +598 4223 8359", "ursea:cod_estacion": "288"}}, {"type": "node", "id": 4540008652, "lat": -34.9100693, "lon": -54.9545966}, {"type": "node", "id": 4540008653, "lat": -34.9100674, "lon": -54.9544861}, {"type": "node", "id": 4540008654, "lat": -34.9100807, "lon": -54.9544704}, {"type": "node", "id": 4540008655, "lat": -34.9101439, "lon": -54.9544676}, {"type": "node", "id": 4540008656, "lat": -34.9101451, "lon": -54.95453}, {"type": "node", "id": 4540008657, "lat": -34.910203, "lon": -54.9545285}, {"type": "node", "id": 4540008658, "lat": -34.9102039, "lon": -54.9545926}, {"type": "node", "id": 4540008666, "lat": -34.9073633, "lon": -54.9546751}, {"type": "node", "id": 4540008667, "lat": -34.9074555, "lon": -54.9546751}, {"type": "node", "id": 4540008668, "lat": -34.9074555, "lon": -54.9546074}, {"type": "node", "id": 4540008669, "lat": -34.9074325, "lon": -54.9546074}, {"type": "node", "id": 4540008670, "lat": -34.9074325, "lon": -54.9545}, {"type": "node", "id": 4540008671, "lat": -34.9073633, "lon": -54.9545}, {"type": "node", "id": 4540024830, "lat": -34.9064955, "lon": -54.9554503}, {"type": "node", "id": 4540024831, "lat": -34.9064933, "lon": -54.9553369}, {"type": "node", "id": 4540024832, "lat": -34.9065587, "lon": -54.9553351}, {"type": "node", "id": 4540024833, "lat": -34.9065608, "lon": -54.9554485}, {"type": "node", "id": 4540024834, "lat": -34.9068741, "lon": -54.9554623}, {"type": "node", "id": 4540024835, "lat": -34.9069214, "lon": -54.9554611}, {"type": "node", "id": 4540024836, "lat": -34.9069198, "lon": -54.9553678}, {"type": "node", "id": 4540024837, "lat": -34.9068725, "lon": -54.955369}, {"type": "node", "id": 4540043976, "lat": -34.909337, "lon": -54.9554129, "tags": {"amenity": "restaurant", "name": "La Rosarina", "source": "Reconocimiento cartogr\u00e1fico de campo 2016 por KG."}}, {"type": "node", "id": 4540062784, "lat": -34.9128031, "lon": -54.9567617}, {"type": "node", "id": 4540062785, "lat": -34.9129645, "lon": -54.9567596}, {"type": "node", "id": 4540062786, "lat": -34.9129633, "lon": -54.9566154}, {"type": "node", "id": 4540062787, "lat": -34.9128018, "lon": -54.9566176}, {"type": "node", "id": 4540071449, "lat": -34.9104467, "lon": -54.9578668}, {"type": "node", "id": 4540071450, "lat": -34.9105724, "lon": -54.957865}, {"type": "node", "id": 4540071451, "lat": -34.9105707, "lon": -54.9576876}, {"type": "node", "id": 4540071452, "lat": -34.910445, "lon": -54.9576895}, {"type": "node", "id": 4540071453, "lat": -34.9101407, "lon": -54.9579038}, {"type": "node", "id": 4540071454, "lat": -34.9102056, "lon": -54.9579011}, {"type": "node", "id": 4540071455, "lat": -34.9102005, "lon": -54.9577204}, {"type": "node", "id": 4540071456, "lat": -34.910285, "lon": -54.9577168}, {"type": "node", "id": 4540071457, "lat": -34.9102829, "lon": -54.9576424}, {"type": "node", "id": 4540071458, "lat": -34.9101335, "lon": -54.9576487}, {"type": "node", "id": 4540136585, "lat": -34.9101152, "lon": -54.9543102, "tags": {"amenity": "dentist", "healthcare": "dentist", "source": "Reconocimiento cartogr\u00e1fico de campo 2016 por KG."}}, {"type": "node", "id": 4540136586, "lat": -34.9094826, "lon": -54.9543535}, {"type": "node", "id": 4540136587, "lat": -34.9095572, "lon": -54.954352}, {"type": "node", "id": 4540136588, "lat": -34.9095554, "lon": -54.9542177}, {"type": "node", "id": 4540137089, "lat": -34.9094808, "lon": -54.9542192}, {"type": "node", "id": 4540137091, "lat": -34.9090319, "lon": -54.9543767}, {"type": "node", "id": 4540137095, "lat": -34.9089675, "lon": -54.9543779}, {"type": "node", "id": 4540137096, "lat": -34.9089679, "lon": -54.9542851}, {"type": "node", "id": 4540137097, "lat": -34.909031, "lon": -54.9542855}, {"type": "node", "id": 4540157269, "lat": -34.9087235, "lon": -54.9543485}, {"type": "node", "id": 4540157270, "lat": -34.9086556, "lon": -54.9543493}, {"type": "node", "id": 4540157271, "lat": -34.9086547, "lon": -54.9542301}, {"type": "node", "id": 4540157272, "lat": -34.9087226, "lon": -54.9542293}, {"type": "node", "id": 4540157273, "lat": -34.9068726, "lon": -54.9543868}, {"type": "node", "id": 4540157274, "lat": -34.9068717, "lon": -54.9542679}, {"type": "node", "id": 4540157275, "lat": -34.9069635, "lon": -54.9542669}, {"type": "node", "id": 4540157276, "lat": -34.9069644, "lon": -54.9543857}, {"type": "node", "id": 4540175985, "lat": -34.9085165, "lon": -54.9556559}, {"type": "node", "id": 4540175986, "lat": -34.9085915, "lon": -54.955654}, {"type": "node", "id": 4540175987, "lat": -34.9085935, "lon": -54.9557698}, {"type": "node", "id": 4540175988, "lat": -34.9085185, "lon": -54.9557717}, {"type": "node", "id": 4540176804, "lat": -34.9122618, "lon": -54.9555532}, {"type": "node", "id": 4540176805, "lat": -34.9123337, "lon": -54.955486}, {"type": "node", "id": 4540176806, "lat": -34.9124097, "lon": -54.9554842}, {"type": "node", "id": 4540176807, "lat": -34.9123347, "lon": -54.9555515}, {"type": "node", "id": 4540176808, "lat": -34.9124127, "lon": -54.9556641}, {"type": "node", "id": 4540176809, "lat": -34.9122636, "lon": -54.9556677}, {"type": "node", "id": 4540176814, "lat": -34.9124597, "lon": -54.9555831, "tags": {"amenity": "dentist", "healthcare": "dentist", "name": "Consultorios Rinc\u00f3n", "source": "Reconocimiento cartogr\u00e1fico de campo 2016 por KG."}}, {"type": "node", "id": 4540197019, "lat": -34.9098016, "lon": -54.9575212, "tags": {"amenity": "ice_cream", "name": "Grido Helado", "source": "Reconocimiento cartogr\u00e1fico de campo 2016 por KG."}}, {"type": "node", "id": 4540197022, "lat": -34.9092988, "lon": -54.9575282, "tags": {"amenity": "fast_food", "brand": "Subway", "brand:wikidata": "Q244457", "brand:wikipedia": "en:Subway (restaurant)", "cuisine": "sandwich", "name": "Subway", "source": "Reconocimiento cartogr\u00e1fico de campo 2016 por KG.", "takeaway": "yes"}}, {"type": "node", "id": 4540197024, "lat": -34.9090582, "lon": -54.9575741}, {"type": "node", "id": 4540197025, "lat": -34.9090559, "lon": -54.9575243}, {"type": "node", "id": 4540197026, "lat": -34.9091573, "lon": -54.9575174}, {"type": "node", "id": 4540197027, "lat": -34.9091582, "lon": -54.9575378}, {"type": "node", "id": 4540197028, "lat": -34.9091331, "lon": -54.9575689}, {"type": "node", "id": 4540525466, "lat": -34.9083971, "lon": -54.9591432, "tags": {"addr:city": "Maldonado", "addr:street": "Florida", "amenity": "restaurant", "cuisine": "pizza", "name": "Canepa's", "source": "Reconocimiento cartogr\u00e1fico 2016 por KG."}}, {"type": "node", "id": 4540525467, "lat": -34.9084007, "lon": -54.9596922}, {"type": "node", "id": 4540525468, "lat": -34.9084505, "lon": -54.9596916}, {"type": "node", "id": 4540525469, "lat": -34.90845, "lon": -54.9596391}, {"type": "node", "id": 4540525470, "lat": -34.9084003, "lon": -54.9596397}, {"type": "node", "id": 4540529263, "lat": -34.9065928, "lon": -54.9600019}, {"type": "node", "id": 4540529264, "lat": -34.9066709, "lon": -54.9600011}, {"type": "node", "id": 4540529265, "lat": -34.9066704, "lon": -54.9599327}, {"type": "node", "id": 4540529266, "lat": -34.9065923, "lon": -54.9599335}, {"type": "node", "id": 4540550532, "lat": -34.9125922, "lon": -54.9585245}, {"type": "node", "id": 4540550533, "lat": -34.9126823, "lon": -54.9585274}, {"type": "node", "id": 4540550534, "lat": -34.9126819, "lon": -54.9584771}, {"type": "node", "id": 4540550535, "lat": -34.9125918, "lon": -54.9584805}, {"type": "node", "id": 4540572908, "lat": -34.908854, "lon": -54.9575865}, {"type": "node", "id": 4540572915, "lat": -34.9087726, "lon": -54.9575898}, {"type": "node", "id": 4540572916, "lat": -34.9087669, "lon": -54.9573772}, {"type": "node", "id": 4540572917, "lat": -34.9088482, "lon": -54.9573739}, {"type": "node", "id": 4540577020, "lat": -34.9079188, "lon": -54.9581176}, {"type": "node", "id": 4540577021, "lat": -34.9082823, "lon": -54.9581075}, {"type": "node", "id": 4540577022, "lat": -34.9082789, "lon": -54.9579777}, {"type": "node", "id": 4540577023, "lat": -34.907916, "lon": -54.9579871}, {"type": "node", "id": 4540580152, "lat": -34.9082437, "lon": -54.9588923}, {"type": "node", "id": 4540580153, "lat": -34.9082887, "lon": -54.9588899}, {"type": "node", "id": 4540580154, "lat": -34.9082865, "lon": -54.9588274}, {"type": "node", "id": 4540580155, "lat": -34.9082782, "lon": -54.9588172}, {"type": "node", "id": 4540580156, "lat": -34.9082411, "lon": -54.9588192}, {"type": "node", "id": 4540580165, "lat": -34.9064566, "lon": -54.9598351}, {"type": "node", "id": 4540580166, "lat": -34.9065091, "lon": -54.9598351}, {"type": "node", "id": 4540580167, "lat": -34.9065091, "lon": -54.9597762}, {"type": "node", "id": 4540580168, "lat": -34.9064566, "lon": -54.9597762}, {"type": "node", "id": 4540600608, "lat": -34.906046, "lon": -54.9589636}, {"type": "node", "id": 4540600609, "lat": -34.906138, "lon": -54.9589629}, {"type": "node", "id": 4540600610, "lat": -34.9061378, "lon": -54.9589096}, {"type": "node", "id": 4540600611, "lat": -34.9060457, "lon": -54.9589103}, {"type": "node", "id": 4540601735, "lat": -34.9070575, "lon": -54.9591738}, {"type": "node", "id": 4541984714, "lat": -34.9112479, "lon": -54.9531728, "tags": {"addr:street": "Santa Teresa", "amenity": "restaurant", "cuisine": "pizza", "name": "Sale Pizza", "phone": "4224 8634"}}, {"type": "node", "id": 4541984717, "lat": -34.9113326, "lon": -54.9531706, "tags": {"addr:street": "Santa Teresa", "amenity": "restaurant", "name": "Vie"}}, {"type": "node", "id": 4542025609, "lat": -34.9079771, "lon": -54.9525295}, {"type": "node", "id": 4542025610, "lat": -34.9079757, "lon": -54.9523687}, {"type": "node", "id": 4542025611, "lat": -34.9080765, "lon": -54.9523674}, {"type": "node", "id": 4542025612, "lat": -34.9080771, "lon": -54.952436}, {"type": "node", "id": 4542025613, "lat": -34.9081068, "lon": -54.9524356}, {"type": "node", "id": 4542025614, "lat": -34.9081076, "lon": -54.9525278}, {"type": "node", "id": 4543613073, "lat": -34.9084911, "lon": -54.9532363, "tags": {"addr:street": "Santa Teresa", "amenity": "restaurant", "cuisine": "regional", "name": "El Establo"}}, {"type": "node", "id": 4543613116, "lat": -34.9140527, "lon": -54.9529855}, {"type": "node", "id": 5332105520, "lat": -34.9139209, "lon": -54.9603336}, {"type": "node", "id": 5335087430, "lat": -34.9137795, "lon": -54.9554904}, {"type": "node", "id": 5335087433, "lat": -34.9137883, "lon": -54.9550431}, {"type": "node", "id": 5335651595, "lat": -34.9146009, "lon": -54.9592698}, {"type": "node", "id": 5335651596, "lat": -34.9147298, "lon": -54.9589922}, {"type": "node", "id": 5335651597, "lat": -34.9147562, "lon": -54.9588782}, {"type": "node", "id": 5335651599, "lat": -34.9146687, "lon": -54.9586198}, {"type": "node", "id": 5335651600, "lat": -34.9146803, "lon": -54.9588796}, {"type": "node", "id": 5335651601, "lat": -34.9146522, "lon": -54.9589825}, {"type": "node", "id": 5335651602, "lat": -34.9145929, "lon": -54.9591146}, {"type": "node", "id": 5335651603, "lat": -34.9145836, "lon": -54.9592065}, {"type": "node", "id": 5335651604, "lat": -34.9145885, "lon": -54.9593416}, {"type": "node", "id": 5335654022, "lat": -34.9137203, "lon": -54.9584921}, {"type": "node", "id": 5335654023, "lat": -34.9145467, "lon": -54.9582409}, {"type": "node", "id": 5335654024, "lat": -34.9148953, "lon": -54.9582127}, {"type": "node", "id": 5335654025, "lat": -34.9149074, "lon": -54.9584622}, {"type": "node", "id": 5335654027, "lat": -34.913719, "lon": -54.958407}, {"type": "node", "id": 5335654028, "lat": -34.913675, "lon": -54.9583013}, {"type": "node", "id": 5335654029, "lat": -34.9136775, "lon": -54.9584076}, {"type": "node", "id": 5335654049, "lat": -34.9136298, "lon": -54.955233, "tags": {"amenity": "bench", "backrest": "no"}}, {"type": "node", "id": 5335654050, "lat": -34.9133615, "lon": -54.9552678, "tags": {"amenity": "fountain"}}, {"type": "node", "id": 5335654052, "lat": -34.9135431, "lon": -54.955908}, {"type": "node", "id": 5335654053, "lat": -34.9135305, "lon": -54.955556}, {"type": "node", "id": 5335654054, "lat": -34.9137308, "lon": -54.9555387}, {"type": "node", "id": 5335654055, "lat": -34.9137323, "lon": -54.9556656}, {"type": "node", "id": 5335654056, "lat": -34.9136346, "lon": -54.9556791}, {"type": "node", "id": 5335654057, "lat": -34.9136361, "lon": -54.9559041}, {"type": "node", "id": 5343156481, "lat": -34.9141677, "lon": -54.9594039}, {"type": "node", "id": 5343156482, "lat": -34.9142657, "lon": -54.959331}, {"type": "node", "id": 5343156483, "lat": -34.9142951, "lon": -54.9593652}, {"type": "node", "id": 5343156484, "lat": -34.914376, "lon": -54.9592518}, {"type": "node", "id": 5343156485, "lat": -34.9143998, "lon": -54.959183}, {"type": "node", "id": 5343156486, "lat": -34.9144167, "lon": -54.9590321}, {"type": "node", "id": 5343156487, "lat": -34.9144136, "lon": -54.9589861}, {"type": "node", "id": 5343156492, "lat": -34.9144391, "lon": -54.9589224}, {"type": "node", "id": 5343156493, "lat": -34.9145245, "lon": -54.9589083}, {"type": "node", "id": 5343156494, "lat": -34.9145445, "lon": -54.9587607}, {"type": "node", "id": 5343156495, "lat": -34.9145622, "lon": -54.958616}, {"type": "node", "id": 5343156498, "lat": -34.9142553, "lon": -54.9587224}, {"type": "node", "id": 5343156499, "lat": -34.9143566, "lon": -54.9588282}, {"type": "node", "id": 5343156500, "lat": -34.9143994, "lon": -54.9588978}, {"type": "node", "id": 5343156501, "lat": -34.9143385, "lon": -54.9588006}, {"type": "node", "id": 5343156502, "lat": -34.9144418, "lon": -54.9591736}, {"type": "node", "id": 5425748737, "lat": -34.9144913, "lon": -54.961407, "tags": {"amenity": "taxi", "name": "Taxi Mautone"}}, {"type": "node", "id": 5683422405, "lat": -34.9137191, "lon": -54.9590571}, {"type": "node", "id": 5683422406, "lat": -34.9137546, "lon": -54.9592258}, {"type": "node", "id": 5683422407, "lat": -34.9139274, "lon": -54.9594368}, {"type": "node", "id": 5683422408, "lat": -34.9139468, "lon": -54.9593819}, {"type": "node", "id": 5683422409, "lat": -34.914121, "lon": -54.9594112}, {"type": "node", "id": 5683422412, "lat": -34.9137531, "lon": -54.9589882}, {"type": "node", "id": 5683422413, "lat": -34.9138055, "lon": -54.9589985}, {"type": "node", "id": 5683422414, "lat": -34.913818, "lon": -54.9590928}, {"type": "node", "id": 5683422415, "lat": -34.9138481, "lon": -54.9592042}, {"type": "node", "id": 5683422416, "lat": -34.9138991, "lon": -54.9592823}, {"type": "node", "id": 5683422417, "lat": -34.9139462, "lon": -54.9593158}, {"type": "node", "id": 5683422419, "lat": -34.9138739, "lon": -54.9594001}, {"type": "node", "id": 5683422420, "lat": -34.9137823, "lon": -54.9592922}, {"type": "node", "id": 5683422721, "lat": -34.9137356, "lon": -54.9591697}, {"type": "node", "id": 6012973093, "lat": -34.9108461, "lon": -54.9612686, "tags": {"amenity": "theatre", "name": "Anfiteatro abierto", "operator": "Intendencia Municipal de Maldonado"}}, {"type": "node", "id": 7292154801, "lat": -34.9133529, "lon": -54.9626751}, {"type": "node", "id": 7292154802, "lat": -34.9143641, "lon": -54.9615499}, {"type": "node", "id": 7292154804, "lat": -34.9147099, "lon": -54.9622674}, {"type": "node", "id": 7292154805, "lat": -34.9146164, "lon": -54.9623009}, {"type": "node", "id": 7292154806, "lat": -34.9144724, "lon": -54.9623439}, {"type": "node", "id": 7292154807, "lat": -34.9144427, "lon": -54.9622782}, {"type": "node", "id": 7292154808, "lat": -34.914128, "lon": -54.9625503}, {"type": "node", "id": 7292154809, "lat": -34.9140004, "lon": -54.9624766}, {"type": "node", "id": 7292154810, "lat": -34.9140126, "lon": -54.9628252}, {"type": "node", "id": 7292154811, "lat": -34.9133749, "lon": -54.9628227}, {"type": "node", "id": 7292154812, "lat": -34.9133413, "lon": -54.9627864}, {"type": "node", "id": 8332696279, "lat": -34.9100733, "lon": -54.9586206}, {"type": "node", "id": 8856534185, "lat": -34.9143404, "lon": -54.9624163}, {"type": "node", "id": 8856534186, "lat": -34.9143163, "lon": -54.9623761}, {"type": "node", "id": 9359736796, "lat": -34.9133529, "lon": -54.9628052}, {"type": "node", "id": 9359736797, "lat": -34.9133336, "lon": -54.9627563}, {"type": "node", "id": 9359736798, "lat": -34.9133375, "lon": -54.96271}, {"type": "node", "id": 9359736799, "lat": -34.914319, "lon": -54.9615453}, {"type": "node", "id": 9359736800, "lat": -34.9143086, "lon": -54.9615513}, {"type": "node", "id": 9359736801, "lat": -34.9143338, "lon": -54.9615436}, {"type": "node", "id": 9359736802, "lat": -34.9143531, "lon": -54.9615446}, {"type": "node", "id": 9360488091, "lat": -34.9147067, "lon": -54.9621722}, {"type": "node", "id": 9663186090, "lat": -34.9089578, "lon": -54.9534013, "tags": {"addr:city": "Maldonado", "addr:housenumber": "813", "addr:postcode": "20000", "addr:street": "Santa Teresa", "amenity": "restaurant", "cuisine": "pizza;italian;burger;regional;international", "name": "The Box Pizza - Gastronom\u00eda", "phone": "091 249 999"}}, {"type": "node", "id": 9842041300, "lat": -34.9109066, "lon": -54.9592102}, {"type": "node", "id": 9842041302, "lat": -34.9107293, "lon": -54.9587657}, {"type": "node", "id": 10096652010, "lat": -34.908183, "lon": -54.961271}, {"type": "node", "id": 10096652011, "lat": -34.9079097, "lon": -54.9612751}, {"type": "node", "id": 10096652012, "lat": -34.907903, "lon": -54.961084}, {"type": "node", "id": 10096652013, "lat": -34.9081764, "lon": -54.9610799}, {"type": "node", "id": 10096658118, "lat": -34.9079071, "lon": -54.961202}, {"type": "node", "id": 10582897639, "lat": -34.9106501, "lon": -54.9533686, "tags": {"addr:housenumber": "719", "addr:street": "Santa Teresa", "amenity": "restaurant", "description": "el mejor chivito de la ciudad", "name": "Pizzeria Chiviteria La Barra", "opening_hours": "Mo-Su 20:00-00:30", "phone": "4224 4395", "website": "http://www.pizzerialabarra.com.uy/"}}, {"type": "node", "id": 11209009822, "lat": -34.9133763, "lon": -54.9560586}, {"type": "node", "id": 11209009823, "lat": -34.9135234, "lon": -54.956062}, {"type": "node", "id": 11209009824, "lat": -34.9133431, "lon": -54.9560594}, {"type": "node", "id": 11209009825, "lat": -34.9133386, "lon": -54.9557919}, {"type": "node", "id": 11209009826, "lat": -34.9133253, "lon": -54.9557207}, {"type": "node", "id": 11209009828, "lat": -34.9131933, "lon": -54.9556738}, {"type": "node", "id": 11209009829, "lat": -34.9131937, "lon": -54.9556968}, {"type": "node", "id": 11209009830, "lat": -34.9131437, "lon": -54.9556751}, {"type": "node", "id": 11209009831, "lat": -34.9131441, "lon": -54.9556966}, {"type": "node", "id": 11209009832, "lat": -34.9130454, "lon": -54.955699}, {"type": "node", "id": 11209009833, "lat": -34.9130456, "lon": -54.9557124}, {"type": "node", "id": 11209011187, "lat": -34.914684, "lon": -54.9534963}, {"type": "node", "id": 11209011188, "lat": -34.9146832, "lon": -54.9535706}, {"type": "node", "id": 11209011189, "lat": -34.9145848, "lon": -54.9535709}, {"type": "node", "id": 11209011190, "lat": -34.9145856, "lon": -54.9535265}, {"type": "node", "id": 11209011191, "lat": -34.9146511, "lon": -54.9535074}, {"type": "node", "id": 11209011192, "lat": -34.9146515, "lon": -54.9535265}, {"type": "node", "id": 11347447974, "lat": -34.9145878, "lon": -54.9512573, "tags": {"addr:city": "Punta del Este", "addr:country": "UY", "addr:state": "Maldonado", "addr:street": "San Mart\u00edn", "amenity": "school", "name": "Escuela 79 Rosal\u00eda de Castro", "nohousenumber": "yes", "operator": "Direcci\u00f3n General de Educaci\u00f3n Inicial y Primaria", "operator:type": "public", "operator:wikidata": "Q5783994", "phone": "+598 4222 2166", "ref:UY:ruee": "1110079", "ref:UY:rule_est": "2100079", "short_name": "Escuela 79", "wikidata": "Q119826648", "wikimedia_commons": "Category:Escuela N\u00b0 79 Rosal\u00eda de Castro"}}, {"type": "node", "id": 11352131206, "lat": -34.9108953, "lon": -54.9588567, "tags": {"entrance": "main"}}, {"type": "node", "id": 11352594911, "lat": -34.9097408, "lon": -54.9576611}, {"type": "node", "id": 11352594912, "lat": -34.9098424, "lon": -54.9580383}, {"type": "node", "id": 11385833858, "lat": -34.9109614, "lon": -54.9594368}, {"type": "node", "id": 11385833863, "lat": -34.9109606, "lon": -54.9594141}, {"type": "node", "id": 11385833864, "lat": -34.9109598, "lon": -54.959389}, {"type": "node", "id": 11385833865, "lat": -34.910955, "lon": -54.9592389}, {"type": "node", "id": 11385834290, "lat": -34.9105597, "lon": -54.9587318}, {"type": "node", "id": 11385834292, "lat": -34.910181, "lon": -54.9588396}, {"type": "node", "id": 11385834293, "lat": -34.9101844, "lon": -54.9589452}, {"type": "node", "id": 11385834296, "lat": -34.9101999, "lon": -54.959429}, {"type": "node", "id": 11385834297, "lat": -34.9104884, "lon": -54.9596623}, {"type": "node", "id": 11385834299, "lat": -34.9102039, "lon": -54.9595544}, {"type": "node", "id": 11385834300, "lat": -34.910907, "lon": -54.959222}, {"type": "node", "id": 11385834301, "lat": -34.9109544, "lon": -54.9592197}, {"type": "node", "id": 11385834302, "lat": -34.9107228, "lon": -54.958766}, {"type": "node", "id": 11385834303, "lat": -34.9107215, "lon": -54.9587241}, {"type": "node", "id": 11397054625, "lat": -34.9139913, "lon": -54.9592147}, {"type": "node", "id": 11397054626, "lat": -34.9138909, "lon": -54.9592412}, {"type": "node", "id": 11397054627, "lat": -34.913927, "lon": -54.9592898}, {"type": "node", "id": 11397054628, "lat": -34.9142202, "lon": -54.9588515}, {"type": "node", "id": 11397054629, "lat": -34.9142253, "lon": -54.9588459}, {"type": "node", "id": 11397054630, "lat": -34.9141991, "lon": -54.958974}, {"type": "node", "id": 11397054631, "lat": -34.9137235, "lon": -54.9589847}, {"type": "node", "id": 11397054632, "lat": -34.9137257, "lon": -54.9591212}, {"type": "node", "id": 11397054636, "lat": -34.9140347, "lon": -54.9594179}, {"type": "node", "id": 11397054637, "lat": -34.9139943, "lon": -54.9594065}, {"type": "node", "id": 11397054638, "lat": -34.9138302, "lon": -54.9593589}, {"type": "node", "id": 11397054643, "lat": -34.9141639, "lon": -54.9587165}, {"type": "node", "id": 11397054644, "lat": -34.9141931, "lon": -54.9587276}, {"type": "node", "id": 11397054645, "lat": -34.9142332, "lon": -54.9587544}, {"type": "node", "id": 11397054648, "lat": -34.9143009, "lon": -54.9587551}, {"type": "node", "id": 11397054649, "lat": -34.9143759, "lon": -54.958864}, {"type": "node", "id": 11397054650, "lat": -34.9145403, "lon": -54.9588496}, {"type": "node", "id": 11397054651, "lat": -34.9148562, "lon": -54.9586223}, {"type": "node", "id": 11397054652, "lat": -34.9146251, "lon": -54.9586248}, {"type": "node", "id": 11397054655, "lat": -34.9146811, "lon": -54.9586877}, {"type": "node", "id": 11397054656, "lat": -34.9146902, "lon": -54.9587866}, {"type": "node", "id": 11397054657, "lat": -34.9146852, "lon": -54.9590957}, {"type": "node", "id": 11397054658, "lat": -34.9146162, "lon": -54.9592131}, {"type": "node", "id": 11397054659, "lat": -34.9145832, "lon": -54.9591561}, {"type": "node", "id": 11397054660, "lat": -34.914603, "lon": -54.9593271}, {"type": "node", "id": 11397054661, "lat": -34.9145455, "lon": -54.9593499}, {"type": "node", "id": 11397054662, "lat": -34.9144594, "lon": -54.9589906}, {"type": "node", "id": 11397054663, "lat": -34.9144298, "lon": -54.9589831}, {"type": "node", "id": 11397054664, "lat": -34.9144122, "lon": -54.9591058}, {"type": "node", "id": 11397054665, "lat": -34.9143503, "lon": -54.9593026}, {"type": "node", "id": 11397054666, "lat": -34.9144713, "lon": -54.9589351}, {"type": "node", "id": 11397081755, "lat": -34.9141796, "lon": -54.9597362}, {"type": "node", "id": 11397081756, "lat": -34.9141868, "lon": -54.9599702}, {"type": "node", "id": 11397081757, "lat": -34.9142284, "lon": -54.9599684}, {"type": "node", "id": 11397081758, "lat": -34.9142208, "lon": -54.9597343}, {"type": "node", "id": 11397081763, "lat": -34.9137003, "lon": -54.9597612}, {"type": "node", "id": 11397081764, "lat": -34.9137426, "lon": -54.9597593}, {"type": "node", "id": 11397081765, "lat": -34.91375, "lon": -54.9599941}, {"type": "node", "id": 11397081766, "lat": -34.9137101, "lon": -54.959996}, {"type": "node", "id": 11397096516, "lat": -34.9125462, "lon": -54.960988}, {"type": "node", "id": 11397096517, "lat": -34.9125017, "lon": -54.9609847}, {"type": "node", "id": 11397096518, "lat": -34.9125435, "lon": -54.9614252}, {"type": "node", "id": 11397096519, "lat": -34.9125484, "lon": -54.961214}, {"type": "node", "id": 11397096523, "lat": -34.9148507, "lon": -54.9619878}, {"type": "node", "id": 11397096524, "lat": -34.914843, "lon": -54.9619788}, {"type": "node", "id": 11397096525, "lat": -34.9148592, "lon": -54.9619928}, {"type": "node", "id": 11397096526, "lat": -34.9149068, "lon": -54.9619653}, {"type": "node", "id": 11397096527, "lat": -34.9149258, "lon": -54.9620069}, {"type": "node", "id": 11397096528, "lat": -34.9152373, "lon": -54.9618007}, {"type": "node", "id": 11397096529, "lat": -34.9150671, "lon": -54.961914}, {"type": "node", "id": 11397096530, "lat": -34.9152458, "lon": -54.961739}, {"type": "node", "id": 11397096531, "lat": -34.9152477, "lon": -54.9617675}, {"type": "node", "id": 11397096532, "lat": -34.9152326, "lon": -54.9617132}, {"type": "node", "id": 11397096533, "lat": -34.914799, "lon": -54.9612043}, {"type": "node", "id": 11397096534, "lat": -34.9148122, "lon": -54.9612096}, {"type": "node", "id": 11397096535, "lat": -34.9147839, "lon": -54.9612113}, {"type": "node", "id": 11397096536, "lat": -34.9146234, "lon": -54.9615332}, {"type": "node", "id": 11397096537, "lat": -34.9146588, "lon": -54.9615486}, {"type": "node", "id": 11397096538, "lat": -34.9146401, "lon": -54.9615191}, {"type": "node", "id": 11397096539, "lat": -34.9147825, "lon": -54.9614219}, {"type": "node", "id": 11397096540, "lat": -34.9150553, "lon": -54.9617471}, {"type": "node", "id": 11397096541, "lat": -34.9148117, "lon": -54.9619067}, {"type": "node", "id": 11397096542, "lat": -34.9145689, "lon": -54.961451}, {"type": "node", "id": 11397096575, "lat": -34.9147967, "lon": -54.9592251}, {"type": "node", "id": 11397096582, "lat": -34.9148331, "lon": -54.9591534}, {"type": "node", "id": 11397096583, "lat": -34.9148917, "lon": -54.9589774}, {"type": "node", "id": 11397096584, "lat": -34.9149115, "lon": -54.9588305}, {"type": "node", "id": 11397096585, "lat": -34.9149148, "lon": -54.9587668}, {"type": "node", "id": 11397096586, "lat": -34.9149082, "lon": -54.9586756}, {"type": "node", "id": 11397096587, "lat": -34.9147413, "lon": -54.9593123}, {"type": "node", "id": 11397096589, "lat": -34.9146591, "lon": -54.9593296}, {"type": "node", "id": 11397096590, "lat": -34.9147933, "lon": -54.9586552}, {"type": "node", "id": 11397096591, "lat": -34.9147553, "lon": -54.9586642}, {"type": "node", "id": 11397096592, "lat": -34.9147625, "lon": -54.9587625}, {"type": "node", "id": 11397096625, "lat": -34.9141357, "lon": -54.9587148}, {"type": "node", "id": 11397096626, "lat": -34.9141312, "lon": -54.9587792}, {"type": "node", "id": 11397096627, "lat": -34.9141837, "lon": -54.958801}, {"type": "node", "id": 11397096628, "lat": -34.9142294, "lon": -54.9588376}, {"type": "node", "id": 11397096629, "lat": -34.9142808, "lon": -54.9589013}, {"type": "node", "id": 11397096630, "lat": -34.9142415, "lon": -54.9589485}, {"type": "node", "id": 11397096631, "lat": -34.91425, "lon": -54.9589693}, {"type": "node", "id": 11397096632, "lat": -34.9142676, "lon": -54.9590354}, {"type": "node", "id": 11397096633, "lat": -34.9142706, "lon": -54.959093}, {"type": "node", "id": 11397096634, "lat": -34.9142607, "lon": -54.9591376}, {"type": "node", "id": 11397096635, "lat": -34.914247, "lon": -54.9591762}, {"type": "node", "id": 11397096636, "lat": -34.9142286, "lon": -54.9592077}, {"type": "node", "id": 11397096637, "lat": -34.9142049, "lon": -54.9592385}, {"type": "node", "id": 11397096638, "lat": -34.9141785, "lon": -54.9592607}, {"type": "node", "id": 11397096639, "lat": -34.9141414, "lon": -54.9592825}, {"type": "node", "id": 11397096640, "lat": -34.9141098, "lon": -54.9592952}, {"type": "node", "id": 11397096641, "lat": -34.9140751, "lon": -54.9593039}, {"type": "node", "id": 11397096642, "lat": -34.9140438, "lon": -54.9593026}, {"type": "node", "id": 11397096643, "lat": -34.914007, "lon": -54.9592919}, {"type": "node", "id": 11397096644, "lat": -34.9139682, "lon": -54.9592694}, {"type": "node", "id": 11397096645, "lat": -34.9138189, "lon": -54.9590049}, {"type": "node", "id": 11397096646, "lat": -34.9138302, "lon": -54.9591541}, {"type": "node", "id": 11397096647, "lat": -34.9138706, "lon": -54.9592459}, {"type": "node", "id": 11397096648, "lat": -34.913894, "lon": -54.9587943}, {"type": "node", "id": 11397096649, "lat": -34.9138684, "lon": -54.9588198}, {"type": "node", "id": 11397096650, "lat": -34.9138783, "lon": -54.9592013}, {"type": "node", "id": 11423726470, "lat": -34.9086834, "lon": -54.9588505, "tags": {"addr:housenumber": "842", "addr:street": "18 de Julio", "amenity": "restaurant", "name": "empanadas calentitas"}}, {"type": "node", "id": 11481531731, "lat": -34.9099582, "lon": -54.9578961, "tags": {"addr:city": "Maldonado", "addr:country": "UY", "addr:housenumber": "757", "addr:state": "Maldonado", "addr:street": "Sarand\u00ed", "amenity": "college", "email": "ifdmaldonado@cfe.edu.uy", "name": "Instituto de Formaci\u00f3n Docente de Maldonado", "official_name": "Instituto de Formaci\u00f3n Docente de Maldonado Maestra Julia Rodr\u00edguez", "operator": "Consejo de Formaci\u00f3n en Educaci\u00f3n", "operator:type": "public", "operator:wikidata": "Q16552124", "phone": "+598 4222 2278", "ref:UY:ruee": "1410564", "ref:UY:rule_est": "5100125", "short_name": "IFD de Maldonado"}}, {"type": "node", "id": 11507142793, "lat": -34.9133035, "lon": -54.9563227, "tags": {"entrance": "main"}}, {"type": "node", "id": 11507142794, "lat": -34.9135277, "lon": -54.9563171}, {"type": "node", "id": 11507142795, "lat": -34.9132944, "lon": -54.9557215}, {"type": "node", "id": 11507142796, "lat": -34.9127797, "lon": -54.9555862}, {"type": "node", "id": 11507142797, "lat": -34.9127922, "lon": -54.9563353}, {"type": "node", "id": 11848462234, "lat": -34.9137685, "lon": -54.960843, "tags": {"addr:city": "Maldonado", "addr:housenumber": "550", "addr:postcode": "20000", "addr:street": "Zelmar Michelini", "amenity": "cafe", "check_date:currency:XBT": "2024-04-25", "cuisine": "coffee_shop", "currency:XBT": "yes", "internet_access": "wlan", "internet_access:fee": "no", "name": "Doppio Cafe Gourmet", "opening_hours": "Mo-Su 09:00-20:00", "outdoor_seating": "yes", "payment:bitcoin": "yes", "payment:lightning": "yes", "website": "https://www.instagram.com/doppio_cafegourmet", "wheelchair": "yes"}}, {"type": "node", "id": 12256959026, "lat": -34.9063857, "lon": -54.9611306, "tags": {"amenity": "dentist", "healthcare": "dentist", "name": "Mikaela Rodriguez"}}, {"type": "node", "id": 12257198145, "lat": -34.9105954, "lon": -54.9606774, "tags": {"amenity": "courthouse"}}, {"type": "node", "id": 12257198151, "lat": -34.9126306, "lon": -54.9584786}, {"type": "way", "id": 181384677, "nodes": [1918168856, 1918168857, 1918168859, 1918168858, 1918168856], "tags": {"addr:city": "Maldonado", "addr:street": "18 de Julio", "amenity": "place_of_worship", "building": "cathedral", "denomination": "catholic", "name": "Catedral", "religion": "christian", "source": "Reconocimiento cartogr\u00e1fico 2016 por KG.", "wikidata": "Q4426012", "wikimedia_commons": "Category:Catedral de San Fernando de Maldonado", "wikipedia": "es:Catedral de Maldonado"}}, {"type": "way", "id": 227735387, "nodes": [2363944645, 11385834297, 2363944647, 11385833858, 11385833863, 11385833864, 11385833865, 11385834301, 11385834300, 9842041300, 11352131206, 2363944649, 9842041302, 11385834302, 11385834303, 11385834290, 2363944651, 11385834292, 11385834293, 11385834296, 11385834299, 2363944645], "tags": {"addr:city": "Maldonado", "addr:country": "UY", "addr:housenumber": "807", "addr:state": "Maldonado", "addr:street": "Rafael P\u00e9rez del Puerto", "amenity": "school", "name": "Escuela T\u00e9cnica de Maldonado", "operator": "Direcci\u00f3n General de Educaci\u00f3n T\u00e9cnico Profesional", "operator:type": "public", "operator:wikidata": "Q118492877", "phone": "+598 4222 3651;+598 4225 0742;+598 4223 2825;+598 4222 3651", "ref:UY:ruee": "1310551", "ref:UY:rule_est": "4100121", "wikidata": "Q119827037"}}, {"type": "way", "id": 227735388, "nodes": [2363944656, 11397096518, 11397096519, 2363944658, 11397096516, 11397096517, 2363944660, 2363944662, 2363944664, 2363944656], "tags": {"amenity": "clinic", "healthcare": "clinic", "name": "Centro de Rehabilitaci\u00f3n F\u00edsica"}}, {"type": "way", "id": 227961165, "nodes": [2365904972, 2365904973, 2365904974, 2365904975, 2365904972], "tags": {"access": "customers", "amenity": "parking", "fee": "yes", "name": "Estacionamiento Pago Roman Guerra y 25", "parking": "surface"}}, {"type": "way", "id": 227961167, "nodes": [2365904980, 2365904981, 2365904982, 2365904983, 2365904980], "tags": {"access": "customers", "amenity": "parking"}}, {"type": "way", "id": 227961168, "nodes": [2365904984, 2365904985, 2365904986, 2365904987, 2365904984], "tags": {"access": "customers", "amenity": "parking"}}, {"type": "way", "id": 227961169, "nodes": [2365904989, 2365904990, 4540601735, 2365904991, 2365904992, 2365904993, 2365904994, 2365904995, 2365904996, 2365904989], "tags": {"access": "customers", "amenity": "parking", "description": "Estacionamiento FIVISA"}}, {"type": "way", "id": 227961170, "nodes": [5683422408, 11397054637, 11397054636, 5683422409, 5343156481, 5343156482, 5343156483, 11397054665, 5343156484, 5343156485, 11397054664, 5343156486, 5343156487, 11397054663, 11397054662, 2369573555, 2369573553, 5343156502, 2365905003, 2369573557, 11397054661, 5335651604, 5335651603, 11397054659, 5335651602, 5335651601, 5335651600, 11397054656, 11397054655, 5335651599, 2369573586, 11397054652, 5343156495, 2365905006, 2369573567, 5343156494, 2369573569, 11397054650, 2369573564, 5343156493, 2369573558, 11397054666, 5343156492, 5343156500, 11397054649, 5343156499, 5343156501, 11397054648, 5343156498, 11397054645, 11397054644, 11397054643, 11397096625, 11397096626, 11397096627, 11397096628, 11397096629, 11397096630, 11397096631, 11397096632, 11397096633, 11397096634, 11397096635, 11397096636, 11397096637, 11397096638, 11397096639, 11397096640, 11397096641, 11397096642, 11397096643, 11397096644, 5683422417, 5683422416, 11397096647, 5683422415, 11397096646, 5683422414, 11397096645, 5683422413, 5683422412, 11397054631, 5683422405, 11397054632, 5683422721, 5683422406, 5683422420, 11397054638, 5683422419, 5683422407, 5683422408], "tags": {"amenity": "parking", "name": "Estacionamiento Junta Departamental"}}, {"type": "way", "id": 227961171, "nodes": [2365905007, 2365905008, 2365905009, 2365905010, 2365905007], "tags": {"amenity": "parking", "capacity": "90", "capacity:disabled": "3", "name": "Intendencia Departamental", "parking": "surface"}}, {"type": "way", "id": 227970520, "nodes": [2365989747, 2451192478, 2451192496, 2451192507, 2365989748, 4543613116, 2365989749, 2365989750, 2365989747], "tags": {"access": "yes", "amenity": "parking", "fee": "no", "name": "Portones de San Fernando", "parking": "surface"}}, {"type": "way", "id": 228763743, "nodes": [2374411182, 5335087430, 1953144089, 5335087433, 2374411185, 2374411182], "tags": {"access": "permissive", "amenity": "parking", "capacity": "56", "capacity:disabled": "yes", "fee": "no", "lit": "yes", "name": "Campus", "opening_hours": "24/7", "parking": "surface", "stay": "0", "supervised": "yes", "surface": "asphalt"}}, {"type": "way", "id": 230914625, "nodes": [2393475764, 2393475765, 2393475766, 2393475767, 2393475768, 2393475769, 2393475764], "tags": {"amenity": "parking", "name": "IDM Tr\u00e1nsito"}}, {"type": "way", "id": 230914626, "nodes": [2393475770, 2393475771, 2393475772, 2393475773, 2393475774, 2393475775, 2393475776, 2393475777, 2393475778, 2393475779, 2393475780, 2393475781, 2393475782, 2393475783, 2393475784, 2393475785, 2393475786, 2393475787, 2393475770], "tags": {"amenity": "parking", "name": "Campus"}}, {"type": "way", "id": 231400303, "nodes": [2397909220, 11397054626, 11397054627, 11397054625, 2397909230, 2397909234, 2397909236, 2397909240, 2397909242, 2397909248, 2397909254, 2397909252, 2397909250, 2397909246, 11397054630, 2397909260, 11397054629, 11397054628, 2397909258, 2397909256, 2397909244, 2397909238, 2397909232, 2397909228, 2397909226, 2397909224, 11397096648, 11397096649, 2397909222, 2397909218, 2397909214, 2397909211, 2397909198, 2397909200, 2397909210, 2397909212, 11397096650, 2397909220], "tags": {"amenity": "townhall", "building": "public", "name": "Junta Departamental Maldonado"}}, {"type": "way", "id": 231400432, "nodes": [2397912408, 2397912405, 2397912410, 2397912412, 2397912408], "tags": {"amenity": "townhall", "building": "office", "building:levels": "6", "name": "Intendencia Departamental de Maldonado"}}, {"type": "way", "id": 237171838, "nodes": [11397096527, 11397096529, 11397096528, 11397096531, 11397096530, 11397096532, 11397096534, 11397096533, 11397096535, 11397096542, 11397096536, 11397096538, 11397096537, 11397096539, 11397096540, 11397096541, 11397096524, 11397096523, 11397096525, 11397096526, 11397096527], "tags": {"amenity": "parking", "name": "Estacionamiento Sanatorio Mautone"}}, {"type": "way", "id": 244422592, "nodes": [2517399339, 2517399333, 2517399337, 2517399342, 2517399336, 2517399343, 2517399344, 2517399339], "tags": {"access": "customers", "amenity": "parking", "fee": "no", "name": "Estacionamiento Disco 8", "parking": "surface"}}, {"type": "way", "id": 244831859, "nodes": [2492998659, 2521008185, 2521008187, 2492998662, 2492998659], "tags": {"access": "customers", "amenity": "parking", "capacity": "40", "fee": "no", "maxstay": "2 hours", "name": "Estacionamiento Ta-Ta", "parking": "surface"}}, {"type": "way", "id": 244832364, "nodes": [2521012415, 2521012419, 2521012418, 2521012416, 2521012417, 2521012414, 2521012415], "tags": {"addr:street": "Avenida Aigu\u00e1", "amenity": "car_wash", "name": "Gomer\u00eda Todo Crisal", "shop": "tyres"}}, {"type": "way", "id": 248949967, "nodes": [2556570964, 2556570972, 2556570971, 2556570970, 2556570967, 2556570974, 2556570973, 2556570969, 2556570968, 2556570976, 2556570975, 2556570955, 2556570956, 2556570959, 2556570960, 2556570957, 2556570958, 2556570961, 2556570962, 2556570965, 2556570966, 2556570963, 2556570964], "tags": {"amenity": "place_of_worship", "building": "yes", "denomination": "mormon", "name": "La Iglesia de Jesucristo de los Santos de los \u00daltimos D\u00edas", "religion": "christian", "source": "Reconocimiento cartogr\u00e1fico de campo 2016 por KG."}}, {"type": "way", "id": 259046979, "nodes": [2643714133, 5332105520, 2393474988, 2393474987, 2643714138, 2696326261, 11397081758, 11397081755, 11397081756, 11397081757, 2696326262, 2696326260, 2643714129, 2643714127, 11397081766, 11397081765, 11397081764, 11397081763, 2643714132, 2643714139, 2643714133], "tags": {"access": "private", "amenity": "parking", "description": "Torre del Banco", "parking": "surface"}}, {"type": "way", "id": 266447025, "nodes": [2719988470, 2719988480, 2719988478, 2719988467, 2719988470], "tags": {"amenity": "university", "name": "Escuela Ramirez (Formaci\u00f3n de Maestros)"}}, {"type": "way", "id": 267829138, "nodes": [2732318145, 2732318162, 2732318161, 2732318159, 11352594911, 2719988467, 2719988470, 11352594912, 2732318145], "tags": {"addr:postcode": "20000", "addr:street": "25 de Mayo", "amenity": "arts_centre", "name": "Paseo San Fernando", "roof:shape": "skillion", "wikidata": "Q57166830", "wikimedia_commons": "Category:Cuartel o Cuartelillo Militar de Maldonado"}}, {"type": "way", "id": 267829139, "nodes": [2732318162, 2732318164, 2732318165, 8332696279, 2732318168, 2732318161, 2732318162], "tags": {"addr:city": "Maldonado", "addr:postcode": "20000", "addr:street": "25 de Mayo", "amenity": "police", "building": "yes", "name": "Jefatura de Policia", "wikidata": "Q61978814"}}, {"type": "way", "id": 267886177, "nodes": [2732794604, 11209011191, 11209011192, 11209011190, 11209011189, 11209011188, 11209011187, 2732794608, 2732794607, 2732794590, 2732794591, 2732794585, 2732794587, 2732794602, 2732794604], "tags": {"amenity": "fire_station", "building": "yes", "building:levels": "2", "name": "Bomberos Maldonado"}}, {"type": "way", "id": 457943832, "nodes": [4540008652, 4540008653, 4540008654, 4540008655, 4540008656, 4540008657, 4540008658, 4540008652], "tags": {"amenity": "events_venue", "building": "yes", "source": "Reconocimiento cartogr\u00e1fico de campo 2016 por KG."}}, {"type": "way", "id": 457943834, "nodes": [4540008666, 4540008667, 4540008668, 4540008669, 4540008670, 4540008671, 4540008666], "tags": {"amenity": "place_of_worship", "building": "yes", "name": "Jesucristo El Se\u00f1or", "religion": "christian", "source": "Reconocimiento cartogr\u00e1fico de campo 2016 por KG."}}, {"type": "way", "id": 457945324, "nodes": [4540024830, 4540024831, 4540024832, 4540024833, 4540024830], "tags": {"amenity": "language_school", "building": "yes", "name": "Ingles", "source": "Reconocimiento cartogr\u00e1fico de campo 2016 por KG."}}, {"type": "way", "id": 457945325, "nodes": [4540024834, 4540024835, 4540024836, 4540024837, 4540024834], "tags": {"amenity": "language_school", "building": "yes", "name": "Instituto Michigan", "source": "Reconocimiento cartogr\u00e1fico de campo 2016 por KG."}}, {"type": "way", "id": 457949321, "nodes": [4540062784, 4540062785, 4540062786, 4540062787, 4540062784], "tags": {"amenity": "veterinary", "area": "yes", "building": "yes", "name": "Veterinaria El Gaucho", "source": "Reconocimiento cartogr\u00e1fico de campo 2016 por KG."}}, {"type": "way", "id": 457950494, "nodes": [4540071449, 4540071450, 4540071451, 4540071452, 4540071449], "tags": {"amenity": "bank", "brand": "BBVA", "brand:wikidata": "Q806189", "brand:wikipedia": "en:Banco Bilbao Vizcaya Argentaria", "building": "yes", "name": "BBVA", "official_name": "Banco Bilbao Vizcaya Argentaria", "operator": "Banco Bilbao Vizcaya Argentaria Uruguay S.A."}}, {"type": "way", "id": 457950495, "nodes": [4540071453, 4540071454, 4540071455, 4540071456, 4540071457, 4540071458, 4540071453], "tags": {"amenity": "bank", "building": "yes", "name": "Scotiabank"}}, {"type": "way", "id": 457957225, "nodes": [4540136586, 4540136587, 4540136588, 4540137089, 4540136586], "tags": {"amenity": "school", "building": "yes", "name": "Escuela San Fernando", "operator:type": "private"}}, {"type": "way", "id": 457957227, "nodes": [4540137091, 4540137095, 4540137096, 4540137097, 4540137091], "tags": {"amenity": "veterinary", "building": "yes", "name": "Veterinaria Lazo", "shop": "pet", "source": "Reconocimiento cartogr\u00e1fico de campo 2016 por KG."}}, {"type": "way", "id": 457959353, "nodes": [4540157269, 4540157270, 4540157271, 4540157272, 4540157269], "tags": {"amenity": "dentist", "building": "yes", "healthcare": "dentist", "name": "Odontologico Integral", "source": "Reconocimiento cartogr\u00e1fico de campo 2016 por KG."}}, {"type": "way", "id": 457959354, "nodes": [4540157273, 4540157274, 4540157275, 4540157276, 4540157273], "tags": {"amenity": "dentist", "building": "yes", "healthcare": "dentist", "source": "Reconocimiento cartogr\u00e1fico de campo 2016 por KG."}}, {"type": "way", "id": 457961118, "nodes": [4540175985, 4540175986, 4540175987, 4540175988, 4540175985], "tags": {"amenity": "dentist", "building": "yes", "healthcare": "dentist", "source": "Reconocimiento cartogr\u00e1fico de campo 2016 por KG."}}, {"type": "way", "id": 457961125, "nodes": [4540176804, 4540176807, 4540176805, 4540176806, 4540176808, 4540176809, 4540176804], "tags": {"amenity": "studio", "building": "yes", "name": "Punta Cable", "studio": "television"}}, {"type": "way", "id": 457963153, "nodes": [4540197024, 4540197025, 4540197026, 4540197027, 4540197028, 4540197024], "tags": {"amenity": "fast_food", "brand": "McDonald's", "brand:wikidata": "Q38076", "brand:wikipedia": "en:McDonald's", "building": "yes", "cuisine": "burger", "name": "McDonald's", "source": "Reconocimiento cartogr\u00e1fico de campo 2016 por KG.", "takeaway": "yes"}}, {"type": "way", "id": 457996700, "nodes": [4540525467, 4540525468, 4540525469, 4540525470, 4540525467], "tags": {"addr:city": "Maldonado", "addr:street": "Florida", "amenity": "restaurant", "building": "yes", "cuisine": "dessert", "name": "Il Volo", "source": "Reconocimiento cartogr\u00e1fico 2016 por KG."}}, {"type": "way", "id": 457997302, "nodes": [4540529263, 4540529264, 4540529265, 4540529266, 4540529263], "tags": {"addr:city": "Maldonado", "addr:housenumber": "939", "addr:street": "Jos\u00e9 Dodera", "amenity": "restaurant", "building": "yes", "name": "Los Negros", "source": "Reconocimiento cartogr\u00e1fico 2016 por KG."}}, {"type": "way", "id": 458000004, "nodes": [4540550532, 4540550533, 4540550534, 12257198151, 4540550535, 4540550532], "tags": {"amenity": "payment_centre", "building": "yes", "check_date": "2023-10-07", "name": "Redpagos Vencer", "phone": "4225 8691", "source": "Reconocimiento cartogr\u00e1fico 2016 por KG."}}, {"type": "way", "id": 458003813, "nodes": [4540572908, 4540572915, 4540572916, 4540572917, 4540572908], "tags": {"addr:city": "Maldonado", "addr:street": "Sarand\u00ed", "amenity": "bank", "building": "yes", "name": "Bandes"}}, {"type": "way", "id": 458004307, "nodes": [4540577020, 4540577021, 4540577022, 4540577023, 4540577020], "tags": {"addr:city": "Maldonado", "addr:street": "Florida", "amenity": "bank", "brand": "Rep\u00fablica", "brand:wikidata": "Q4077337", "brand:wikipedia": "en:Banco de la Rep\u00fablica Oriental del Uruguay", "building": "yes", "building:levels": "2", "name": "Rep\u00fablica", "official_name": "Banco de la Rep\u00fablica Oriental del Uruguay", "operator": "Banco Rep\u00fablica", "short_name": "BROU"}}, {"type": "way", "id": 458004734, "nodes": [4540580152, 4540580153, 4540580154, 4540580155, 4540580156, 4540580152], "tags": {"addr:city": "Maldonado", "addr:street": "18 de Julio", "amenity": "bureau_de_change", "building": "yes", "name": "Abitab 18 de julio"}}, {"type": "way", "id": 458004737, "nodes": [4540580165, 4540580166, 4540580167, 4540580168, 4540580165], "tags": {"addr:city": "Maldonado", "addr:street": "Ventura Alegre", "amenity": "restaurant", "building": "yes", "name": "Taberna Patxi", "phone": "+598 4223 8393", "source": "Reconocimiento cartogr\u00e1fico 2016 por KG."}}, {"type": "way", "id": 458007605, "nodes": [4540600608, 4540600609, 4540600610, 4540600611, 4540600608], "tags": {"addr:city": "Maldonado", "addr:street": "18 de Julio", "amenity": "post_office", "building": "yes", "name": "Correo Uruguayo", "source": "Reconocimiento cartogr\u00e1fico 2016 por KG."}}, {"type": "way", "id": 458162456, "nodes": [4542025609, 4542025610, 4542025611, 4542025612, 4542025613, 4542025614, 4542025609], "tags": {"amenity": "bureau_de_change", "building": "yes", "name": "Redpagos Cambio Maiorano", "phone": "+598 4223 0089; +598 4223 0090"}}, {"type": "way", "id": 552675056, "nodes": [5335654022, 5335654027, 5335654029, 5335654028, 5335654023, 5335654024, 5335654025, 5335654022], "tags": {"amenity": "social_facility", "operator": "INAU", "social_facility": "group_home", "social_facility:for": "child"}}, {"type": "way", "id": 552675062, "nodes": [5335654052, 5335654053, 5335654054, 5335654055, 5335654056, 5335654057, 5335654052], "tags": {"amenity": "bicycle_parking"}}, {"type": "way", "id": 780975771, "nodes": [7292154801, 9359736800, 9359736799, 9359736801, 9359736802, 7292154802, 2451192529, 2451192540, 2451192537, 2451192544, 2451192542, 9360488091, 7292154804, 7292154805, 7292154806, 7292154807, 8856534186, 8856534185, 7292154808, 7292154809, 7292154810, 7292154811, 9359736796, 7292154812, 9359736797, 9359736798, 7292154801], "tags": {"amenity": "hospital", "healthcare": "hospital", "name": "Sanatorio Mautone"}}, {"type": "way", "id": 1103340846, "nodes": [10096652010, 10096652011, 10096658118, 10096652012, 10096652013, 10096652010], "tags": {"amenity": "parking"}}, {"type": "way", "id": 1228965721, "nodes": [2369573588, 2365905004, 11397096587, 2369573595, 11397096575, 11397096582, 2369573602, 11397096583, 2369573604, 11397096584, 11397096585, 11397096586, 2365905005, 11397054651, 11397096590, 11397096591, 11397096592, 5335651597, 5335651596, 11397054657, 11397054658, 5335651595, 11397054660, 11397096589, 2369573588], "tags": {"amenity": "parking", "name": "Estacionamiento Junta Departamental"}}, {"type": "way", "id": 1238737096, "nodes": [11507142794, 11507142793, 11507142797, 11507142796, 2719988530, 2719988539, 2719988540, 11209009833, 11209009832, 11209009831, 11209009830, 11209009828, 11209009829, 2719988555, 11507142795, 11209009826, 2719988556, 11209009825, 11209009824, 11209009822, 2719988557, 11209009823, 2719988558, 11507142794], "tags": {"addr:city": "Maldonado", "addr:country": "UY", "addr:state": "Maldonado", "addr:street": "Acu\u00f1a de Figueroa", "amenity": "school", "name": "Liceo 1 Departamental Florencio Collazo", "nohousenumber": "yes", "operator": "Direcci\u00f3n General de Educaci\u00f3n Secundaria", "operator:type": "public", "operator:wikidata": "Q119732446", "phone": "+598 4222 3851;+598 4223 5757;+598 4223 5728", "ref:UY:ruee": "1210001", "ref:UY:rule_est": "3100107", "short_name": "Liceo 1", "wikidata": "Q119827235"}}]}