{"version": 0.6, "generator": "Overpass API 0.7.62.5 1bd436f1", "osm3s": {"timestamp_osm_base": "2025-03-20T23:01:58Z", "copyright": "The data included in this document is from www.openstreetmap.org. The data is made available under ODbL."}, "elements": [{"type": "node", "id": 2363600161, "lat": -34.9021019, "lon": -54.9631727, "tags": {"addr:city": "Maldonado", "addr:country": "UY", "addr:state": "Maldonado", "addr:street": "Avenida Jos\u00e9 Joaqu\u00edn de Viana", "amenity": "fuel", "brand": "Axion", "name": "Servicentro Maldonado", "operator": "PREMILAR S.A.", "phone": "+598 4223 9359", "ursea:cod_estacion": "290"}}, {"type": "node", "id": 2363812553, "lat": -34.9021406, "lon": -54.9629721, "tags": {"amenity": "atm", "network": "Banred", "source": "Reconocimiento cartogr\u00e1fico de campo 2016 por KG"}}, {"type": "node", "id": 2365225405, "lat": -34.90363, "lon": -54.9664354, "tags": {"entrance": "main"}}, {"type": "node", "id": 2367942376, "lat": -34.9000324, "lon": -54.9661851, "tags": {"amenity": "pharmacy", "healthcare": "pharmacy", "name": "Lussich", "phone": "+598 4222 6333"}}, {"type": "node", "id": 2383808431, "lat": -34.9038009, "lon": -54.9608622, "tags": {"amenity": "restaurant", "name": "La Balancita"}}, {"type": "node", "id": 2393275668, "lat": -34.9037767, "lon": -54.9600628, "tags": {"amenity": "studio", "name": "Fm Gente", "studio": "audio"}}, {"type": "node", "id": 2495032071, "lat": -34.8992898, "lon": -54.9664324}, {"type": "node", "id": 2495032074, "lat": -34.8994219, "lon": -54.9660893}, {"type": "node", "id": 2495032077, "lat": -34.8995028, "lon": -54.9661981}, {"type": "node", "id": 2520783928, "lat": -34.9017104, "lon": -54.9649134}, {"type": "node", "id": 2520783931, "lat": -34.9017779, "lon": -54.964912}, {"type": "node", "id": 2524808640, "lat": -34.8970976, "lon": -54.9671992}, {"type": "node", "id": 2524808642, "lat": -34.8973948, "lon": -54.9676078}, {"type": "node", "id": 2524808643, "lat": -34.8973455, "lon": -54.9669311}, {"type": "node", "id": 2524808644, "lat": -34.897476, "lon": -54.96752}, {"type": "node", "id": 2524808645, "lat": -34.8976427, "lon": -54.9673398}, {"type": "node", "id": 2590572093, "lat": -34.8968078, "lon": -54.9694034, "tags": {"amenity": "post_office", "name": "De Punta"}}, {"type": "node", "id": 2615242495, "lat": -34.8970692, "lon": -54.968988, "tags": {"addr:city": "Maldonado", "addr:country": "UY", "amenity": "pharmacy", "dispensing": "no", "healthcare": "pharmacy"}}, {"type": "node", "id": 2615242498, "lat": -34.8992629, "lon": -54.9665677, "tags": {"amenity": "fast_food", "name": "Grill San Francisco"}}, {"type": "node", "id": 2738647953, "lat": -34.8992094, "lon": -54.9663244}, {"type": "node", "id": 2738647954, "lat": -34.8993621, "lon": -54.9663525}, {"type": "node", "id": 2738647955, "lat": -34.8993918, "lon": -54.9663925}, {"type": "node", "id": 2738647956, "lat": -34.8994337, "lon": -54.9662746}, {"type": "node", "id": 2738647957, "lat": -34.8994629, "lon": -54.9663139}, {"type": "node", "id": 2830384485, "lat": -34.9046845, "lon": -54.9635638, "tags": {"amenity": "restaurant", "name": "Classic Restaurant", "source": "Reconocimiento cartogr\u00e1fico de campo 2016 por KG"}}, {"type": "node", "id": 2830384496, "lat": -34.9020065, "lon": -54.962284, "tags": {"amenity": "waste_disposal"}}, {"type": "node", "id": 3074194848, "lat": -34.904234, "lon": -54.9644055, "tags": {"amenity": "post_office", "name": "Agencia Central de Cargas"}}, {"type": "node", "id": 4302877498, "lat": -34.9014296, "lon": -54.9683825, "tags": {"amenity": "clinic", "healthcare": "clinic", "name": "Centro de control para Diab\u00e9ticos ", "opening_hours": "Mo-Fr 08:45-16:45"}}, {"type": "node", "id": 4392600089, "lat": -34.9020776, "lon": -54.9668903, "tags": {"amenity": "community_centre", "name": "Predio Ferial", "name:es": "Predio Ferial", "opening_hours": "We 07:00-15:00"}}, {"type": "node", "id": 4392673392, "lat": -34.9043577, "lon": -54.9631001, "tags": {"amenity": "ice_cream", "name": "Helader\u00eda Grido", "source": "Reconocimiento cartogr\u00e1fico de campo 2016 por KG"}}, {"type": "node", "id": 4530600208, "lat": -34.9020791, "lon": -54.9650766, "tags": {"amenity": "dentist", "healthcare": "dentist", "source": "Reconocimiento cartogr\u00e1fico de campo 2016 por KG"}}, {"type": "node", "id": 4608683800, "lat": -34.9045242, "lon": -54.9630443, "tags": {"addr:city": "Maldonado", "addr:postcode": "20000", "addr:street": "Avenida Jos\u00e9 Joaqu\u00edn de Viana", "amenity": "restaurant", "cuisine": "pizza;regional;coffee_shop;burger;international;carnes;minutas", "name": "La Pasiva Express Viana", "name:es": "La Pasiva Express Viana", "phone": "096 601 414"}}, {"type": "node", "id": 5335087481, "lat": -34.9021222, "lon": -54.9673182}, {"type": "node", "id": 5335087482, "lat": -34.9021113, "lon": -54.9666864}, {"type": "node", "id": 5335087483, "lat": -34.9026621, "lon": -54.9666467}, {"type": "node", "id": 5335087484, "lat": -34.9026802, "lon": -54.9666997}, {"type": "node", "id": 5335087485, "lat": -34.902412, "lon": -54.9671812}, {"type": "node", "id": 5335087486, "lat": -34.9022273, "lon": -54.9672961}, {"type": "node", "id": 5335087487, "lat": -34.9021118, "lon": -54.9666664}, {"type": "node", "id": 5335087488, "lat": -34.90211, "lon": -54.9666142}, {"type": "node", "id": 5335087489, "lat": -34.9027153, "lon": -54.9665801}, {"type": "node", "id": 5335087490, "lat": -34.9026706, "lon": -54.9666233}, {"type": "node", "id": 5526308352, "lat": -34.9002697, "lon": -54.9619431}, {"type": "node", "id": 5526308353, "lat": -34.9001154, "lon": -54.9610652}, {"type": "node", "id": 5526308354, "lat": -34.9003572, "lon": -54.961146}, {"type": "node", "id": 5526308355, "lat": -34.9004562, "lon": -54.9617869}, {"type": "node", "id": 11345609445, "lat": -34.8972379, "lon": -54.9673921}, {"type": "node", "id": 11345609446, "lat": -34.8973178, "lon": -54.9673058}, {"type": "node", "id": 11345609453, "lat": -34.8974421, "lon": -54.9671713}, {"type": "node", "id": 11345609456, "lat": -34.8973734, "lon": -54.9672457}, {"type": "node", "id": 11345609457, "lat": -34.8974215, "lon": -54.9671936}, {"type": "node", "id": 11345609460, "lat": -34.8972973, "lon": -54.9673279}, {"type": "node", "id": 11345609461, "lat": -34.897347, "lon": -54.9672742}, {"type": "node", "id": 11345609464, "lat": -34.8974207, "lon": -54.9670344, "tags": {"entrance": "main"}}, {"type": "node", "id": 11345609465, "lat": -34.8975522, "lon": -54.9672153, "tags": {"entrance": "main"}}, {"type": "node", "id": 11386220337, "lat": -34.9040541, "lon": -54.9664151}, {"type": "node", "id": 11386220338, "lat": -34.9040863, "lon": -54.9672298}, {"type": "node", "id": 11386220339, "lat": -34.9037998, "lon": -54.9672446}, {"type": "node", "id": 11386220340, "lat": -34.9038002, "lon": -54.9672728}, {"type": "node", "id": 11386220341, "lat": -34.9034222, "lon": -54.9672868}, {"type": "node", "id": 11386220342, "lat": -34.9033903, "lon": -54.9664487}, {"type": "node", "id": 11405405836, "lat": -34.9004119, "lon": -54.9618269}, {"type": "node", "id": 11405405837, "lat": -34.9002975, "lon": -54.9610658}, {"type": "node", "id": 11405405838, "lat": -34.9004059, "lon": -54.9614661, "tags": {"entrance": "main"}}, {"type": "node", "id": 11413753690, "lat": -34.901872, "lon": -54.9645912, "tags": {"entrance": "main"}}, {"type": "node", "id": 11413753691, "lat": -34.9017741, "lon": -54.9646248}, {"type": "node", "id": 11413753692, "lat": -34.9018725, "lon": -54.9646251}, {"type": "node", "id": 11413753693, "lat": -34.9018632, "lon": -54.9640192}, {"type": "node", "id": 11413753694, "lat": -34.9014524, "lon": -54.964034}, {"type": "node", "id": 11413753695, "lat": -34.9010388, "lon": -54.9646569}, {"type": "node", "id": 11413753696, "lat": -34.9013825, "lon": -54.9649895}, {"type": "node", "id": 11413753697, "lat": -34.9017111, "lon": -54.9649805}, {"type": "node", "id": 11507245964, "lat": -34.8974858, "lon": -54.9671241}, {"type": "way", "id": 241932910, "nodes": [2495032071, 2738647953, 2495032074, 2495032077, 2738647956, 2738647957, 2738647955, 2738647954, 2495032071], "tags": {"amenity": "place_of_worship", "building": "yes", "denomination": "mormon", "name": "Iglesia Mormona", "religion": "christian"}}, {"type": "way", "id": 245252810, "nodes": [11345609445, 2524808642, 2524808644, 2524808645, 11345609465, 11507245964, 11345609453, 11345609457, 11345609456, 11345609461, 11345609446, 11345609460, 11345609445], "tags": {"addr:city": "Maldonado", "addr:country": "UY", "addr:state": "Maldonado", "addr:suburb": "Barrio San Francisco", "amenity": "school", "name": "Liceo 3 de Maldonado", "nohousenumber": "yes", "operator": "Direcci\u00f3n General de Educaci\u00f3n Secundaria", "operator:type": "public", "operator:wikidata": "Q119732446", "phone": "+598 4224 2388;+598 4224 2389", "ref:UY:ruee": "1210010", "ref:UY:rule_est": "3100110", "short_name": "Liceo 3", "wikidata": "Q119827355"}}, {"type": "way", "id": 552611523, "nodes": [5335087481, 5335087482, 5335087483, 5335087484, 5335087485, 5335087486, 5335087481], "tags": {"amenity": "marketplace", "building": "yes"}}, {"type": "way", "id": 552611524, "nodes": [5335087487, 5335087488, 5335087489, 5335087490, 5335087487], "tags": {"amenity": "parking"}}, {"type": "way", "id": 576080751, "nodes": [5526308352, 5526308353, 11405405837, 5526308354, 11405405838, 5526308355, 11405405836, 5526308352], "tags": {"addr:city": "Maldonado", "addr:country": "UY", "addr:description": "y Michelini", "addr:street": "Mirlos", "amenity": "school", "name": "EMI Educa", "operator:type": "private", "phone": "+598 4223 8390", "website": "https://www.emieduca.edu.uy/"}}, {"type": "way", "id": 1227850117, "nodes": [2365225405, 11386220342, 11386220341, 11386220340, 11386220339, 11386220338, 11386220337, 2365225405], "tags": {"addr:city": "Maldonado", "addr:country": "UY", "addr:state": "Maldonado", "addr:street": "Carolina Saboya", "amenity": "school", "name": "Escuela 27 Juan Antonio Lavalleja", "nohousenumber": "yes", "operator": "Direcci\u00f3n General de Educaci\u00f3n Inicial y Primaria", "operator:type": "public", "operator:wikidata": "Q5783994", "phone": "+598 4222 4671", "ref:UY:ruee": "1110027", "ref:UY:rule_est": "2100027", "short_name": "Escuela 27", "wikidata": "Q119825454"}}, {"type": "way", "id": 1230735299, "nodes": [2520783928, 11413753697, 11413753696, 11413753695, 11413753694, 11413753693, 11413753690, 11413753692, 11413753691, 2520783931, 2520783928], "tags": {"addr:city": "Maldonado", "addr:country": "UY", "addr:state": "Maldonado", "addr:street": "Continuaci\u00f3n Avenida Lavalleja", "amenity": "school", "name": "Liceo 5", "nohousenumber": "yes", "operator": "Direcci\u00f3n General de Educaci\u00f3n Secundaria", "operator:type": "public", "operator:wikidata": "Q119732446", "phone": "+598 4224 7830;+598 4224 8109;+598 4225 2807", "ref:UY:ruee": "1210015", "ref:UY:rule_est": "3100112", "wikidata": "Q119827381"}}, {"type": "way", "id": 1238736071, "nodes": [11345609445, 11345609460, 11345609446, 11345609461, 11345609456, 11345609457, 11345609453, 11507245964, 11345609464, 2524808643, 2524808640, 11345609445], "tags": {"addr:city": "Maldonado", "addr:country": "UY", "addr:state": "Maldonado", "amenity": "school", "name": "Escuela 104", "nohousenumber": "yes", "operator": "Direcci\u00f3n General de Educaci\u00f3n Inicial y Primaria", "operator:type": "public", "operator:wikidata": "Q5783994", "phone": "+598 4224 9272", "ref:UY:ruee": "1110104", "ref:UY:rule_est": "2100102", "wikidata": "Q119824454"}}]}