{"version": 0.6, "generator": "Overpass API 0.7.62.5 1bd436f1", "osm3s": {"timestamp_osm_base": "2025-03-20T23:12:14Z", "copyright": "The data included in this document is from www.openstreetmap.org. The data is made available under ODbL."}, "elements": [{"type": "node", "id": 2363812517, "lat": -34.8962289, "lon": -54.9537477, "tags": {"amenity": "pharmacy", "healthcare": "pharmacy", "name": "La 26"}}, {"type": "node", "id": 2363812518, "lat": -34.8985443, "lon": -54.95373, "tags": {"addr:city": "Maldonado", "addr:country": "UY", "amenity": "pharmacy", "healthcare": "pharmacy", "name": "Jesus de Nazareth", "phone": "+598 4224 8429"}}, {"type": "node", "id": 2367879993, "lat": -34.8967238, "lon": -54.9542303, "tags": {"amenity": "community_centre", "name": "Comunal Barrio Molino"}}, {"type": "node", "id": 2378166052, "lat": -34.8971054, "lon": -54.9534079, "tags": {"amenity": "fast_food", "cuisine": "burger", "name": "El Jubilado"}}, {"type": "node", "id": 2381119034, "lat": -34.8950928, "lon": -54.9504953, "tags": {"amenity": "bar", "name": "Bar Sanguinetti"}}, {"type": "node", "id": 2384920133, "lat": -34.8987303, "lon": -54.9511437, "tags": {"amenity": "restaurant", "cuisine": "pizza", "name": "Pizzer\u00eda Romimel"}}, {"type": "node", "id": 2385456431, "lat": -34.9023724, "lon": -54.9487611}, {"type": "node", "id": 2385456433, "lat": -34.9024012, "lon": -54.9488898}, {"type": "node", "id": 2385456436, "lat": -34.9026323, "lon": -54.9488129}, {"type": "node", "id": 2385456440, "lat": -34.9026484, "lon": -54.9488852}, {"type": "node", "id": 2385456442, "lat": -34.9030333, "lon": -54.9487571}, {"type": "node", "id": 2385456459, "lat": -34.9029883, "lon": -54.9485561}, {"type": "node", "id": 2390659714, "lat": -34.8958263, "lon": -54.9536946, "tags": {"amenity": "bar", "name": "Sede Club Pe\u00f1asco"}}, {"type": "node", "id": 2495016937, "lat": -34.8956955, "lon": -54.9528588}, {"type": "node", "id": 2495016942, "lat": -34.8959297, "lon": -54.9531437}, {"type": "node", "id": 2495016946, "lat": -34.8959998, "lon": -54.952721}, {"type": "node", "id": 2495023862, "lat": -34.900302, "lon": -54.9525334}, {"type": "node", "id": 2495023863, "lat": -34.9003072, "lon": -54.9528615}, {"type": "node", "id": 2495023864, "lat": -34.900505, "lon": -54.9525287}, {"type": "node", "id": 2495023865, "lat": -34.9005101, "lon": -54.9528568}, {"type": "node", "id": 2588605276, "lat": -34.8961577, "lon": -54.9477415, "tags": {"amenity": "waste_disposal"}}, {"type": "node", "id": 2588605277, "lat": -34.896382, "lon": -54.9467613, "tags": {"amenity": "waste_disposal"}}, {"type": "node", "id": 2588605278, "lat": -34.897131, "lon": -54.9478881, "tags": {"amenity": "waste_disposal"}}, {"type": "node", "id": 2588605283, "lat": -34.8978923, "lon": -54.9492225, "tags": {"amenity": "waste_disposal"}}, {"type": "node", "id": 2588605287, "lat": -34.9003044, "lon": -54.9564436, "tags": {"amenity": "waste_disposal"}}, {"type": "node", "id": 2590572221, "lat": -34.9012338, "lon": -54.9480919, "tags": {"amenity": "waste_disposal"}}, {"type": "node", "id": 2637612527, "lat": -34.8963653, "lon": -54.9467558, "tags": {"amenity": "waste_disposal"}}, {"type": "node", "id": 2732380353, "lat": -34.8985003, "lon": -54.9533912}, {"type": "node", "id": 2732380354, "lat": -34.8986254, "lon": -54.9533932}, {"type": "node", "id": 2732380355, "lat": -34.898637, "lon": -54.9532631}, {"type": "node", "id": 2732380356, "lat": -34.898502, "lon": -54.9532814}, {"type": "node", "id": 2753735091, "lat": -34.8956398, "lon": -54.953148}, {"type": "node", "id": 2753735092, "lat": -34.8956745, "lon": -54.9532185}, {"type": "node", "id": 2753735093, "lat": -34.8958206, "lon": -54.9522789}, {"type": "node", "id": 2753735094, "lat": -34.8959066, "lon": -54.953272}, {"type": "node", "id": 2753735099, "lat": -34.8960733, "lon": -54.9522883}, {"type": "node", "id": 3074200959, "lat": -34.8943949, "lon": -54.948829, "tags": {"amenity": "waste_disposal"}}, {"type": "node", "id": 4243452990, "lat": -34.8981954, "lon": -54.9566454, "tags": {"amenity": "atm"}}, {"type": "node", "id": 4394471791, "lat": -34.9003217, "lon": -54.9563937, "tags": {"addr:street": "Agrimensor Julio Grossy", "amenity": "place_of_worship", "name": "Sal\u00f3n de los Testigos de Jehov\u00e1", "name:es": "Sal\u00f3n de los Testigos de Jehov\u00e1", "opening_hours": "We-Su 19:00-22:00"}}, {"type": "node", "id": 11275787860, "lat": -34.8958023, "lon": -54.9522993}, {"type": "node", "id": 11275788622, "lat": -34.8964092, "lon": -54.9524227, "tags": {"addr:city": "Maldonado", "addr:country": "UY", "addr:state": "Maldonado", "amenity": "kindergarten", "building": "school", "name": "Jard\u00edn de Infantes 109", "official_name": "Escuela 109", "operator": "Direcci\u00f3n General de Educaci\u00f3n Inicial y Primaria", "operator:type": "public", "operator:wikidata": "Q5783994", "ref:UY:ruee": "1110109", "ref:UY:rule_est": "2100142", "wikidata": "Q119824518"}}, {"type": "node", "id": 11275788623, "lat": -34.8960935, "lon": -54.9530208, "tags": {"addr:city": "Maldonado", "addr:country": "UY", "addr:state": "Maldonado", "addr:street": "Avenida Jos\u00e9 Batlle y Ord\u00f3\u00f1ez", "alt_name": "Escuela 7 Del Molino", "amenity": "school", "name": "Escuela 7 General Jos\u00e9 de San Mart\u00edn", "nohousenumber": "yes", "operator": "Direcci\u00f3n General de Educaci\u00f3n Inicial y Primaria", "operator:type": "public", "operator:wikidata": "Q5783994", "phone": "+598 4222 3066", "ref:UY:ruee": "1110007", "ref:UY:rule_est": "2100007", "short_name": "Escuela 7", "wikidata": "Q119826482", "wikimedia_commons": "Category:Escuela N\u00b0 7 Gral. Jos\u00e9 de San Mart\u00edn"}}, {"type": "node", "id": 11345587350, "lat": -34.8957188, "lon": -54.9527207, "tags": {"entrance": "main"}}, {"type": "node", "id": 11345587351, "lat": -34.895793, "lon": -54.9523598}, {"type": "node", "id": 11345587352, "lat": -34.8957784, "lon": -54.9523668}, {"type": "node", "id": 12255142954, "lat": -34.8955098, "lon": -54.9488144, "tags": {"amenity": "waste_disposal"}}, {"type": "node", "id": 12255142955, "lat": -34.8992827, "lon": -54.9508596, "tags": {"amenity": "events_venue", "name": "Universo Kids"}}, {"type": "node", "id": 12255151524, "lat": -34.8969019, "lon": -54.9489677, "tags": {"amenity": "dentist", "healthcare": "dentist", "name": "Jessica Molina"}}, {"type": "node", "id": 12255170579, "lat": -34.9018212, "lon": -54.9545492, "tags": {"amenity": "studio", "name": "Cadena del Mar", "studio": "radio"}}, {"type": "node", "id": 12255193442, "lat": -34.9000974, "lon": -54.9534204, "tags": {"amenity": "payment_centre", "name": "Red Pago"}}, {"type": "node", "id": 12417817387, "lat": -34.8963072, "lon": -54.9537008, "tags": {"amenity": "ice_cream", "name": "Grido"}}, {"type": "way", "id": 230014821, "nodes": [2385456431, 2385456433, 2385456436, 2385456440, 2385456442, 2385456459, 2385456431], "tags": {"amenity": "community_centre", "building": "yes", "name": "AFE (Ex Estaci\u00f3n de Ferrocarril)"}}, {"type": "way", "id": 241932185, "nodes": [2495023863, 2495023865, 2495023864, 2495023862, 2495023863], "tags": {"amenity": "marketplace", "building": "retail", "name": "Agromercado Alem\u00e1n", "shop": "greengrocer"}}, {"type": "way", "id": 267836465, "nodes": [2732380353, 2732380354, 2732380355, 2732380356, 2732380353], "tags": {"amenity": "veterinary", "building": "yes", "email": "info@veterinariamaldonado.com", "name": "Veterinaria Maldonado", "phone": "+598 42231017", "website": "http://www.veterinariamaldonado.com/tienda2/"}}, {"type": "way", "id": 270336654, "nodes": [2753735091, 2753735092, 2753735094, 2495016942, 2495016946, 2753735099, 2753735093, 11275787860, 11345587351, 11345587352, 11345587350, 2495016937, 2753735091], "tags": {"addr:city": "Maldonado", "addr:country": "UY", "addr:state": "Maldonado", "addr:street": "Eduardo Acevedo", "amenity": "school", "barrier": "fence", "fence_type": "metal", "name": "Liceo 2 de Maldonado", "nohousenumber": "yes", "operator": "Direcci\u00f3n General de Educaci\u00f3n Secundaria", "operator:type": "public", "operator:wikidata": "Q119732446", "phone": "+598 4222 2171;+598 4222 1077", "ref:UY:ruee": "1210008", "ref:UY:rule_est": "3100108", "short_name": "Liceo 2", "wikidata": "Q119827328"}}]}