{"version": 0.6, "generator": "Overpass API 0.7.62.5 1bd436f1", "osm3s": {"timestamp_osm_base": "2025-03-20T23:03:00Z", "copyright": "The data included in this document is from www.openstreetmap.org. The data is made available under ODbL."}, "elements": [{"type": "node", "id": 2363812533, "lat": -34.8985643, "lon": -54.9448139, "tags": {"addr:city": "Maldonado", "addr:country": "UY", "addr:state": "Maldonado", "addr:street": "Sim\u00f3n del Pino", "amenity": "school", "name": "Escuela 87", "nohousenumber": "yes", "operator": "Direcci\u00f3n General de Educaci\u00f3n Inicial y Primaria", "operator:type": "public", "operator:wikidata": "Q5783994", "phone": "+598 4223 1347", "ref:UY:ruee": "1110087", "ref:UY:rule_est": "2100087", "wikidata": "Q119826781"}}, {"type": "node", "id": 2365964191, "lat": -34.9039844, "lon": -54.9441066, "tags": {"amenity": "school", "name": "Colegio Cem Maldonado", "operator:type": "private"}}, {"type": "node", "id": 2367934545, "lat": -34.8984917, "lon": -54.9436089, "tags": {"amenity": "place_of_worship", "building": "church", "denomination": "mormon", "religion": "christian"}}, {"type": "node", "id": 2367934547, "lat": -34.9009253, "lon": -54.9436197, "tags": {"amenity": "dentist", "healthcare": "dentist", "name": "Cabrera"}}, {"type": "node", "id": 2367950801, "lat": -34.9028871, "lon": -54.9437725, "tags": {"addr:city": "Maldonado", "addr:country": "UY", "amenity": "pharmacy", "healthcare": "pharmacy", "name": "Nieves", "phone": "+598 4223 1671"}}, {"type": "node", "id": 2367950802, "lat": -34.9001142, "lon": -54.9436994, "tags": {"addr:city": "Maldonado", "addr:country": "UY", "amenity": "pharmacy", "healthcare": "pharmacy", "name": "Del Mirador", "phone": "+598 4222 8900"}}, {"type": "node", "id": 2367950807, "lat": -34.8980233, "lon": -54.943962, "tags": {"amenity": "taxi", "name": "Taxi Camino de los Gauchos"}}, {"type": "node", "id": 2377571722, "lat": -34.9006203, "lon": -54.9436106, "tags": {"amenity": "bureau_de_change", "name": "Abitab Camino de los Gauchos"}}, {"type": "node", "id": 2377841709, "lat": -34.8976921, "lon": -54.9421583, "tags": {"amenity": "bureau_de_change", "name": "Redpagos Cambio Nelson 3", "phone": "4225 8321"}}, {"type": "node", "id": 2380711724, "lat": -34.9044458, "lon": -54.947019, "tags": {"amenity": "bar", "name": "La Proa"}}, {"type": "node", "id": 2385441685, "lat": -34.9025383, "lon": -54.9438088, "tags": {"amenity": "clinical_laboratory", "name": "Laboratorio Bio Este"}}, {"type": "node", "id": 2385456431, "lat": -34.9023724, "lon": -54.9487611}, {"type": "node", "id": 2385456433, "lat": -34.9024012, "lon": -54.9488898}, {"type": "node", "id": 2385456436, "lat": -34.9026323, "lon": -54.9488129}, {"type": "node", "id": 2385456440, "lat": -34.9026484, "lon": -54.9488852}, {"type": "node", "id": 2385456442, "lat": -34.9030333, "lon": -54.9487571}, {"type": "node", "id": 2385456459, "lat": -34.9029883, "lon": -54.9485561}, {"type": "node", "id": 2391006612, "lat": -34.9008096, "lon": -54.9436235, "tags": {"amenity": "veterinary", "name": "Camino de los Gauchos", "shop": "pet"}}, {"type": "node", "id": 2391006613, "lat": -34.901342, "lon": -54.9418296, "tags": {"amenity": "veterinary", "name": "Agropecuaria Tucan", "shop": "pet"}}, {"type": "node", "id": 2432926094, "lat": -34.9046302, "lon": -54.9434439, "tags": {"amenity": "ice_cream", "name": "Grido"}}, {"type": "node", "id": 2477063528, "lat": -34.904643, "lon": -54.9485854, "tags": {"amenity": "veterinary", "name": "Veterinaria Bergalli"}}, {"type": "node", "id": 2483097751, "lat": -34.9002714, "lon": -54.9438393, "tags": {"amenity": "fast_food", "name": "Carro de El Rengo"}}, {"type": "node", "id": 2517286629, "lat": -34.8974502, "lon": -54.9388375}, {"type": "node", "id": 2517286630, "lat": -34.8975574, "lon": -54.9392315}, {"type": "node", "id": 2517286633, "lat": -34.8976296, "lon": -54.9388046}, {"type": "node", "id": 2517286634, "lat": -34.8976811, "lon": -54.9392089}, {"type": "node", "id": 2563401681, "lat": -34.9001952, "lon": -54.9426762, "tags": {"addr:city": "Maldonado", "addr:postcode": "20000", "addr:street": "El\u00edas Chiossi", "amenity": "place_of_worship", "denomination": "jehovahs_witness", "name": "Sal\u00f3n del Reino Testigos de Jehov\u00e1", "religion": "christian"}}, {"type": "node", "id": 2588605276, "lat": -34.8961577, "lon": -54.9477415, "tags": {"amenity": "waste_disposal"}}, {"type": "node", "id": 2588605277, "lat": -34.896382, "lon": -54.9467613, "tags": {"amenity": "waste_disposal"}}, {"type": "node", "id": 2588605278, "lat": -34.897131, "lon": -54.9478881, "tags": {"amenity": "waste_disposal"}}, {"type": "node", "id": 2588605280, "lat": -34.8973336, "lon": -54.9466477, "tags": {"amenity": "waste_disposal"}}, {"type": "node", "id": 2588605283, "lat": -34.8978923, "lon": -54.9492225, "tags": {"amenity": "waste_disposal"}}, {"type": "node", "id": 2590572221, "lat": -34.9012338, "lon": -54.9480919, "tags": {"amenity": "waste_disposal"}}, {"type": "node", "id": 2594265377, "lat": -34.8982847, "lon": -54.9446386, "tags": {"amenity": "waste_disposal"}}, {"type": "node", "id": 2594265378, "lat": -34.9001112, "lon": -54.9450954, "tags": {"amenity": "waste_disposal"}}, {"type": "node", "id": 2594265379, "lat": -34.9011709, "lon": -54.9451876, "tags": {"amenity": "waste_disposal"}}, {"type": "node", "id": 2594265380, "lat": -34.9021403, "lon": -54.9452457, "tags": {"amenity": "waste_disposal"}}, {"type": "node", "id": 2594265381, "lat": -34.902965, "lon": -54.9452597, "tags": {"amenity": "waste_disposal"}}, {"type": "node", "id": 2594265382, "lat": -34.904189, "lon": -54.9452958, "tags": {"amenity": "waste_disposal"}}, {"type": "node", "id": 2594294063, "lat": -34.8975307, "lon": -54.9438137, "tags": {"amenity": "waste_disposal"}}, {"type": "node", "id": 2594294064, "lat": -34.8985136, "lon": -54.9437995, "tags": {"amenity": "waste_disposal"}}, {"type": "node", "id": 2594294065, "lat": -34.8995802, "lon": -54.9437613, "tags": {"amenity": "waste_disposal"}}, {"type": "node", "id": 2594294066, "lat": -34.9021547, "lon": -54.9436692, "tags": {"amenity": "waste_disposal"}}, {"type": "node", "id": 2612201015, "lat": -34.8979542, "lon": -54.9460853, "tags": {"amenity": "waste_disposal"}}, {"type": "node", "id": 2612201016, "lat": -34.9003372, "lon": -54.9462396, "tags": {"amenity": "waste_disposal"}}, {"type": "node", "id": 2612201017, "lat": -34.9005173, "lon": -54.9462663, "tags": {"amenity": "telephone"}}, {"type": "node", "id": 2612201018, "lat": -34.9011501, "lon": -54.9464592, "tags": {"amenity": "waste_disposal"}}, {"type": "node", "id": 2612201023, "lat": -34.9027823, "lon": -54.9420703, "tags": {"amenity": "waste_disposal"}}, {"type": "node", "id": 2612201024, "lat": -34.9028759, "lon": -54.9466877, "tags": {"amenity": "waste_disposal"}}, {"type": "node", "id": 2612201025, "lat": -34.9030487, "lon": -54.9436249, "tags": {"amenity": "waste_disposal"}}, {"type": "node", "id": 2612201026, "lat": -34.9042431, "lon": -54.9411235, "tags": {"amenity": "waste_disposal"}}, {"type": "node", "id": 2637612527, "lat": -34.8963653, "lon": -54.9467558, "tags": {"amenity": "waste_disposal"}}, {"type": "node", "id": 2653013826, "lat": -34.9047242, "lon": -54.9486062, "tags": {"amenity": "waste_disposal"}}, {"type": "node", "id": 4286847893, "lat": -34.8978022, "lon": -54.9428698, "tags": {"addr:postcode": "2000", "addr:street": "Juan Alberto Caracar\u00e1", "amenity": "dentist", "healthcare": "dentist"}}, {"type": "node", "id": 5835136185, "lat": -34.9018002, "lon": -54.9465852, "tags": {"addr:postcode": "20000", "addr:street": "Manuel Mel\u00e9ndez", "amenity": "childcare", "name": "Guarderia Naranja Lima", "phone": "59892084574"}}, {"type": "node", "id": 11356743195, "lat": -34.897536, "lon": -54.9390579}, {"type": "node", "id": 11356743196, "lat": -34.8975048, "lon": -54.9390636}, {"type": "node", "id": 11356743197, "lat": -34.8975008, "lon": -54.9390317}, {"type": "node", "id": 11356743198, "lat": -34.8974748, "lon": -54.9390365}, {"type": "node", "id": 11356743199, "lat": -34.8976341, "lon": -54.9389782}, {"type": "node", "id": 11356743200, "lat": -34.8976323, "lon": -54.9388266}, {"type": "node", "id": 11356743201, "lat": -34.8976158, "lon": -54.9388296}, {"type": "node", "id": 11356743202, "lat": -34.8976523, "lon": -54.9389748}, {"type": "node", "id": 11356743204, "lat": -34.8971918, "lon": -54.9381627}, {"type": "node", "id": 11356743205, "lat": -34.8973211, "lon": -54.9381393}, {"type": "node", "id": 11356743206, "lat": -34.8973156, "lon": -54.938091}, {"type": "node", "id": 11356743207, "lat": -34.8975955, "lon": -54.9380467}, {"type": "node", "id": 11356743208, "lat": -34.8976763, "lon": -54.9387569}, {"type": "node", "id": 11356743209, "lat": -34.8974404, "lon": -54.9388011}, {"type": "node", "id": 11356743210, "lat": -34.8972435, "lon": -54.9386026}, {"type": "node", "id": 11369877883, "lat": -34.8986294, "lon": -54.9448115, "tags": {"addr:city": "Maldonado", "addr:country": "UY", "addr:description": "y Caracara", "addr:state": "Maldonado", "addr:street": "Sim\u00f3n del Pino", "amenity": "school", "name": "Escuela 91", "nohousenumber": "yes", "operator": "Direcci\u00f3n General de Educaci\u00f3n Inicial y Primaria", "operator:type": "public", "operator:wikidata": "Q5783994", "phone": "+598 4224 7863", "ref:UY:ruee": "1110091", "ref:UY:rule_est": "2100087", "wikidata": "Q119826862"}}, {"type": "node", "id": 12255151524, "lat": -34.8969019, "lon": -54.9489677, "tags": {"amenity": "dentist", "healthcare": "dentist", "name": "Jessica Molina"}}, {"type": "way", "id": 230014821, "nodes": [2385456431, 2385456433, 2385456436, 2385456440, 2385456442, 2385456459, 2385456431], "tags": {"amenity": "community_centre", "building": "yes", "name": "AFE (Ex Estaci\u00f3n de Ferrocarril)"}}, {"type": "way", "id": 244406314, "nodes": [2517286630, 2517286634, 11356743202, 11356743199, 11356743201, 11356743200, 2517286633, 2517286629, 11356743198, 11356743197, 11356743196, 11356743195, 2517286630], "tags": {"amenity": "clinic", "building": "yes", "healthcare": "clinic", "name": "Policl\u00ednica Maldonado Nuevo"}}, {"type": "way", "id": 1224583395, "nodes": [11356743210, 11356743209, 11356743208, 11356743207, 11356743206, 11356743205, 11356743204, 11356743210], "tags": {"addr:city": "Maldonado", "addr:country": "UY", "addr:description": "y Meboipe", "addr:state": "Maldonado", "addr:street": "Juan Alberto Caracar\u00e1", "amenity": "school", "name": "Escuela 95 Espa\u00f1a", "nohousenumber": "yes", "operator": "Direcci\u00f3n General de Educaci\u00f3n Inicial y Primaria", "operator:type": "public", "operator:wikidata": "Q5783994", "phone": "+598 4223 7848;+598 4223 8040", "ref:UY:ruee": "1110095", "ref:UY:rule_est": "2100094", "short_name": "Escuela 95", "wikidata": "Q119826922"}}]}