{"version": 0.6, "generator": "Overpass API 0.7.62.5 1bd436f1", "osm3s": {"timestamp_osm_base": "2025-03-20T23:13:10Z", "copyright": "The data included in this document is from www.openstreetmap.org. The data is made available under ODbL."}, "elements": [{"type": "node", "id": 2351733645, "lat": -34.9059067, "lon": -54.941931, "tags": {"entrance": "main"}}, {"type": "node", "id": 2612201026, "lat": -34.9042431, "lon": -54.9411235, "tags": {"amenity": "waste_disposal"}}, {"type": "node", "id": 2612201028, "lat": -34.9059713, "lon": -54.9410137, "tags": {"amenity": "waste_disposal"}}, {"type": "node", "id": 2612201030, "lat": -34.906845, "lon": -54.941263, "tags": {"amenity": "waste_disposal"}}, {"type": "node", "id": 2612201038, "lat": -34.9089004, "lon": -54.9391152, "tags": {"amenity": "waste_disposal"}}, {"type": "node", "id": 2642871244, "lat": -34.9078626, "lon": -54.9390154, "tags": {"amenity": "waste_disposal"}}, {"type": "node", "id": 2693780323, "lat": -34.901243, "lon": -54.933752, "tags": {"amenity": "community_centre", "name": "Centro Caif \"Dionisio Diaz\"", "operator": "INAU- Plan Caif"}}, {"type": "node", "id": 4176709289, "lat": -34.9060555, "lon": -54.9385979, "tags": {"entrance": "main"}}, {"type": "node", "id": 11481513066, "lat": -34.9060629, "lon": -54.9389244, "tags": {"entrance": "main"}}, {"type": "node", "id": 11507007685, "lat": -34.9060446, "lon": -54.9381215}, {"type": "node", "id": 11507007686, "lat": -34.9067081, "lon": -54.9378989}, {"type": "node", "id": 11507007687, "lat": -34.9067334, "lon": -54.9388531}, {"type": "node", "id": 11507007688, "lat": -34.9064012, "lon": -54.9388631}, {"type": "node", "id": 11507007689, "lat": -34.9060619, "lon": -54.9388752}, {"type": "node", "id": 11507015825, "lat": -34.9057305, "lon": -54.9415571}, {"type": "node", "id": 11507015827, "lat": -34.9056752, "lon": -54.9415895}, {"type": "node", "id": 11507015840, "lat": -34.9059428, "lon": -54.9415497}, {"type": "node", "id": 11507015843, "lat": -34.9061458, "lon": -54.9415426}, {"type": "node", "id": 11507015844, "lat": -34.9062283, "lon": -54.9415398}, {"type": "node", "id": 11507015846, "lat": -34.9062921, "lon": -54.9416235}, {"type": "node", "id": 11507015847, "lat": -34.9062304, "lon": -54.9418334}, {"type": "node", "id": 11507015851, "lat": -34.9058573, "lon": -54.9415527}, {"type": "node", "id": 11507015852, "lat": -34.9062032, "lon": -54.9419256}, {"type": "node", "id": 11507015853, "lat": -34.9057991, "lon": -54.9419329}, {"type": "node", "id": 11507015854, "lat": -34.9056643, "lon": -54.9415594}, {"type": "node", "id": 11507015855, "lat": -34.9063176, "lon": -54.9415366}, {"type": "node", "id": 11507039874, "lat": -34.9064095, "lon": -54.9391974}, {"type": "node", "id": 11507039875, "lat": -34.9060688, "lon": -54.9392048}, {"type": "way", "id": 1238720774, "nodes": [11507015855, 11507015844, 11507015843, 11507015840, 11507015851, 11507015825, 11507015854, 11507015827, 11507015853, 2351733645, 11507015852, 11507015847, 11507015846, 11507015855], "tags": {"addr:city": "Maldonado", "addr:country": "UY", "addr:description": "y Paysand\u00fa", "addr:state": "Maldonado", "addr:street": "San Fernando", "addr:suburb": "San Mart\u00edn", "amenity": "school", "name": "Escuela 50 Maestro Antonio Camacho", "nohousenumber": "yes", "operator": "Direcci\u00f3n General de Educaci\u00f3n Inicial y Primaria", "operator:type": "public", "operator:wikidata": "Q5783994", "phone": "+598 4222 7793", "ref:UY:ruee": "1110050", "ref:UY:rule_est": "2100050", "short_name": "Escuela 50", "wikidata": "Q119826141"}}, {"type": "way", "id": 1238723358, "nodes": [11507039875, 11481513066, 11507007689, 11507007688, 11507039874, 11507039875], "tags": {"addr:city": "Maldonado", "addr:country": "UY", "addr:state": "Maldonado", "addr:street": "Joaqu\u00edn Artigas", "amenity": "school", "name": "Centro Educativo Comunitario San Mart\u00edn", "nohousenumber": "yes", "operator": "Direcci\u00f3n General de Educaci\u00f3n T\u00e9cnico Profesional", "operator:type": "public", "operator:wikidata": "Q118492877", "phone": "+598 4225 3306", "ref:UY:ruee": "1310560", "ref:UY:rule_est": "4100136", "short_name": "CEC San Mart\u00edn", "wikidata": "Q119824295"}}, {"type": "way", "id": 1238723360, "nodes": [11507007689, 11507007688, 11507007687, 11507007686, 11507007685, 4176709289, 11507007689], "tags": {"addr:city": "Maldonado", "addr:country": "UY", "addr:state": "Maldonado", "addr:street": "Joaqu\u00edn Artigas", "addr:suburb": "Lomas de San Mart\u00edn", "amenity": "school", "name": "Liceo 6", "nohousenumber": "yes", "operator": "Direcci\u00f3n General de Educaci\u00f3n Secundaria", "operator:type": "public", "operator:wikidata": "Q119732446", "phone": "+598 4225 5560;+598 4225 5552", "ref:UY:ruee": "1210018", "ref:UY:rule_est": "3100138", "wikidata": "Q119827287"}}]}